{"type": "FeatureCollection", "features": [{"type": "Feature", "properties": {"name": "Van Cortlandt Park", "park_id": "X092", "acres": 1146.43, "borough": "X", "location": "Broadway, Jerome Ave,City Line,Van Cortlandt Pk S", "typecategory": "Flagship Park", "source": "NYC Open Data \u2014 Parks Properties (enfh-gkve)"}, "geometry": {"type": "MultiPolygon", "coordinates": [[[[-73.885595, 40.899552], [-73.885668, 40.899619], [-73.885674, 40.899625], [-73.885712, 40.899657], [-73.885757, 40.899696], [-73.885799, 40.89973], [-73.885842, 40.899765], [-73.885931, 40.899831], [-73.886014, 40.899888], [-73.886099, 40.899943], [-73.886185, 40.899997], [-73.886264, 40.900044], [-73.88633, 40.900081], [-73.886344, 40.900088], [-73.886354, 40.900094], [-73.886383, 40.900109], [-73.886425, 40.900131], [-73.886565, 40.900198], [-73.88658, 40.900205], [-73.886661, 40.900243], [-73.886909, 40.900364], [-73.886947, 40.90038], [-73.886965, 40.900387], [-73.887022, 40.90041], [-73.887032, 40.900415], [-73.887079, 40.900433], [-73.887127, 40.900453], [-73.887136, 40.900457], [-73.887194, 40.90048], [-73.887251, 40.900503], [-73.887301, 40.900521], [-73.887351, 40.900537], [-73.887402, 40.900552], [-73.887454, 40.900566], [-73.887506, 40.900578], [-73.887559, 40.900589], [-73.887613, 40.900599], [-73.887666, 40.900608], [-73.887721, 40.900615], [-73.887775, 40.900621], [-73.88783, 40.900625], [-73.887884, 40.900628], [-73.887939, 40.90063], [-73.88799, 40.90063], [-73.88804, 40.90063], [-73.888073, 40.900629], [-73.88809, 40.900628], [-73.888141, 40.900625], [-73.888191, 40.900621], [-73.888241, 40.900616], [-73.88829, 40.900609], [-73.88834, 40.900601], [-73.888389, 40.900592], [-73.888437, 40.900582], [-73.888485, 40.900571], [-73.888533, 40.900558], [-73.88858, 40.900545], [-73.888626, 40.90053], [-73.888679, 40.900512], [-73.888732, 40.900494], [-73.888767, 40.900483], [-73.888784, 40.900477], [-73.888793, 40.900474], [-73.888837, 40.900459], [-73.889092, 40.90037], [-73.889347, 40.900279], [-73.889602, 40.900188], [-73.889875, 40.900086], [-73.890149, 40.899986], [-73.890425, 40.899888], [-73.890703, 40.899792], [-73.890776, 40.899768], [-73.890851, 40.899745], [-73.890926, 40.899724], [-73.89094, 40.899721], [-73.890954, 40.899718], [-73.890968, 40.899716], [-73.890982, 40.899713], [-73.890996, 40.899711], [-73.891011, 40.89971], [-73.891025, 40.899709], [-73.89106, 40.899705], [-73.891096, 40.899701], [-73.891131, 40.899696], [-73.891165, 40.89969], [-73.8912, 40.899683], [-73.891234, 40.899676], [-73.891302, 40.899661], [-73.891369, 40.899646], [-73.891435, 40.899632], [-73.891501, 40.899618], [-73.891601, 40.899597], [-73.891701, 40.899579], [-73.891776, 40.899566], [-73.891895, 40.899547], [-73.892014, 40.89953], [-73.892183, 40.89951], [-73.892353, 40.899493], [-73.892366, 40.899492], [-73.892524, 40.89948], [-73.8927, 40.89947], [-73.892875, 40.899464], [-73.893051, 40.899461], [-73.893105, 40.899461], [-73.893158, 40.899461], [-73.893211, 40.89946], [-73.893283, 40.899458], [-73.893355, 40.899454], [-73.893395, 40.899452], [-73.893435, 40.899451], [-73.893476, 40.89945], [-73.893516, 40.899451], [-73.893714, 40.899459], [-73.893912, 40.899473], [-73.894029, 40.899484], [-73.894055, 40.899486], [-73.894077, 40.899489], [-73.894321, 40.899516], [-73.8944, 40.899524], [-73.894498, 40.899536], [-73.894514, 40.899538], [-73.894744, 40.899566], [-73.894903, 40.899583], [-73.895064, 40.899597], [-73.895225, 40.899607], [-73.895288, 40.899609], [-73.895351, 40.89961], [-73.895414, 40.899609], [-73.895476, 40.899606], [-73.895519, 40.899603], [-73.895539, 40.899602], [-73.895601, 40.899596], [-73.895663, 40.899589], [-73.895725, 40.899579], [-73.895786, 40.899568], [-73.895847, 40.899556], [-73.895907, 40.899542], [-73.895967, 40.899526], [-73.896026, 40.899509], [-73.896084, 40.899491], [-73.896142, 40.899471], [-73.896199, 40.89945], [-73.896254, 40.899427], [-73.896309, 40.899403], [-73.896352, 40.899383], [-73.896393, 40.899363], [-73.896434, 40.899341], [-73.896474, 40.899318], [-73.896514, 40.899295], [-73.896535, 40.899281], [-73.896551, 40.89927], [-73.89659, 40.899244], [-73.896614, 40.899225], [-73.89664, 40.899204], [-73.896674, 40.89917], [-73.896707, 40.899136], [-73.89674, 40.899101], [-73.89674, 40.8991], [-73.89677, 40.899065], [-73.896799, 40.899029], [-73.896827, 40.898992], [-73.89684, 40.898973], [-73.896841, 40.898972], [-73.896842, 40.898973], [-73.896845, 40.898967], [-73.896849, 40.898961], [-73.896849, 40.89896], [-73.89688, 40.898904], [-73.896911, 40.898839], [-73.896942, 40.898774], [-73.896952, 40.89875], [-73.896901, 40.898391], [-73.896893, 40.898332], [-73.896683, 40.896845], [-73.896649, 40.896601], [-73.896514, 40.895639], [-73.896507, 40.895594], [-73.896507, 40.895594], [-73.896345, 40.894521], [-73.896284, 40.894159], [-73.896254, 40.893949], [-73.896249, 40.893827], [-73.896248, 40.893734], [-73.896253, 40.893658], [-73.896263, 40.893578], [-73.896287, 40.893456], [-73.896325, 40.893335], [-73.896374, 40.89319], [-73.896391, 40.893148], [-73.896413, 40.893091], [-73.896431, 40.893048], [-73.896448, 40.893006], [-73.896464, 40.89296], [-73.896476, 40.892926], [-73.896499, 40.892862], [-73.896518, 40.892807], [-73.896527, 40.892784], [-73.896559, 40.892706], [-73.896592, 40.892628], [-73.896628, 40.892553], [-73.896646, 40.892516], [-73.896663, 40.89248], [-73.896712, 40.892403], [-73.896747, 40.892346], [-73.896783, 40.89229], [-73.896823, 40.892224], [-73.896853, 40.892174], [-73.896895, 40.892104], [-73.896935, 40.892029], [-73.896962, 40.891977], [-73.897003, 40.891899], [-73.897032, 40.891842], [-73.897055, 40.891799], [-73.897082, 40.891738], [-73.89712, 40.891649], [-73.897158, 40.891562], [-73.897186, 40.891483], [-73.897217, 40.891395], [-73.897247, 40.89131], [-73.897269, 40.891244], [-73.897293, 40.89117], [-73.897319, 40.891089], [-73.897341, 40.89102], [-73.897355, 40.890977], [-73.897415, 40.890806], [-73.897469, 40.890679], [-73.897512, 40.890583], [-73.897601, 40.890384], [-73.897701, 40.890189], [-73.8978, 40.889994], [-73.89789, 40.889819], [-73.897936, 40.889729], [-73.897983, 40.889637], [-73.898067, 40.889472], [-73.898137, 40.889335], [-73.89822, 40.889173], [-73.898304, 40.889008], [-73.898355, 40.888909], [-73.898407, 40.888806], [-73.898828, 40.887982], [-73.898865, 40.88791], [-73.898892, 40.887858], [-73.898918, 40.887807], [-73.89899, 40.887666], [-73.899028, 40.887591], [-73.89909, 40.887469], [-73.899114, 40.887423], [-73.899142, 40.887367], [-73.899184, 40.887286], [-73.899212, 40.887234], [-73.899231, 40.887183], [-73.899247, 40.887132], [-73.899254, 40.88711], [-73.899259, 40.887096], [-73.899264, 40.887082], [-73.899268, 40.887069], [-73.899272, 40.887054], [-73.899275, 40.88704], [-73.899277, 40.887026], [-73.899278, 40.887012], [-73.899279, 40.886996], [-73.899279, 40.886994], [-73.89928, 40.886983], [-73.899279, 40.886969], [-73.899278, 40.886955], [-73.899277, 40.88694], [-73.899274, 40.886926], [-73.899271, 40.886912], [-73.899268, 40.886892], [-73.899263, 40.886872], [-73.899258, 40.886853], [-73.899252, 40.886833], [-73.899245, 40.886814], [-73.899237, 40.886794], [-73.899228, 40.886775], [-73.899219, 40.886757], [-73.899209, 40.886738], [-73.899198, 40.88672], [-73.899186, 40.886702], [-73.899173, 40.886684], [-73.89916, 40.886667], [-73.899145, 40.88665], [-73.899129, 40.886633], [-73.899113, 40.886617], [-73.899096, 40.886601], [-73.899078, 40.886585], [-73.89906, 40.88657], [-73.899055, 40.886566], [-73.89899, 40.886503], [-73.898905, 40.886487], [-73.897499, 40.886222], [-73.896816, 40.886093], [-73.89681, 40.886097], [-73.896807, 40.886097], [-73.896786, 40.886114], [-73.896785, 40.886114], [-73.896785, 40.886115], [-73.896688, 40.886197], [-73.896542, 40.886313], [-73.896392, 40.886426], [-73.896297, 40.886494], [-73.896238, 40.886536], [-73.896079, 40.886643], [-73.895928, 40.886741], [-73.8959, 40.88676], [-73.895716, 40.886873], [-73.895527, 40.886982], [-73.895458, 40.887019], [-73.895362, 40.88707], [-73.895253, 40.887128], [-73.895055, 40.887233], [-73.894816, 40.887349], [-73.894575, 40.887463], [-73.89441, 40.88754], [-73.894291, 40.887594], [-73.894244, 40.887615], [-73.894132, 40.887665], [-73.89408, 40.887688], [-73.893942, 40.887748], [-73.893832, 40.887795], [-73.893695, 40.887853], [-73.893583, 40.887899], [-73.893421, 40.887968], [-73.893256, 40.888034], [-73.893089, 40.888096], [-73.892801, 40.888203], [-73.89251, 40.888304], [-73.892221, 40.888395], [-73.891933, 40.888487], [-73.89171, 40.888556], [-73.891487, 40.888625], [-73.891186, 40.888708], [-73.890882, 40.888786], [-73.890577, 40.888858], [-73.890251, 40.888937], [-73.889925, 40.889016], [-73.889799, 40.889052], [-73.889675, 40.889091], [-73.889552, 40.889133], [-73.889431, 40.889179], [-73.889376, 40.889201], [-73.889323, 40.889225], [-73.88927, 40.88925], [-73.889218, 40.889276], [-73.889168, 40.889304], [-73.889037, 40.88938], [-73.88891, 40.889459], [-73.888834, 40.889509], [-73.888785, 40.889541], [-73.888677, 40.889617], [-73.88859, 40.889681], [-73.888506, 40.889748], [-73.888425, 40.889816], [-73.888347, 40.889886], [-73.888272, 40.889958], [-73.888199, 40.890032], [-73.888159, 40.890075], [-73.888119, 40.890119], [-73.888078, 40.890164], [-73.888038, 40.890208], [-73.888029, 40.890218], [-73.887994, 40.890256], [-73.887912, 40.890343], [-73.887874, 40.890385], [-73.887836, 40.890426], [-73.887799, 40.890467], [-73.887778, 40.890491], [-73.887761, 40.890508], [-73.887724, 40.89055], [-73.887687, 40.890591], [-73.887653, 40.89063], [-73.88749, 40.890827], [-73.887336, 40.891028], [-73.887189, 40.891233], [-73.887029, 40.891472], [-73.886878, 40.891715], [-73.886781, 40.89188], [-73.886735, 40.89196], [-73.886715, 40.891996], [-73.886708, 40.892008], [-73.886681, 40.892057], [-73.886654, 40.892106], [-73.886627, 40.892155], [-73.8866, 40.892204], [-73.886574, 40.892253], [-73.886547, 40.892302], [-73.88652, 40.892351], [-73.886493, 40.8924], [-73.886478, 40.892429], [-73.886467, 40.892449], [-73.886441, 40.892497], [-73.886417, 40.892541], [-73.886414, 40.892546], [-73.886388, 40.892594], [-73.886362, 40.892642], [-73.886336, 40.892691], [-73.886309, 40.892739], [-73.886283, 40.892788], [-73.886257, 40.892836], [-73.88623, 40.892884], [-73.886204, 40.892933], [-73.886178, 40.892982], [-73.886151, 40.893031], [-73.886124, 40.89308], [-73.886098, 40.893129], [-73.886071, 40.893178], [-73.886044, 40.893227], [-73.886018, 40.893276], [-73.885991, 40.893325], [-73.885963, 40.893375], [-73.885936, 40.893426], [-73.885908, 40.893476], [-73.885881, 40.893527], [-73.885853, 40.893577], [-73.885826, 40.893628], [-73.885798, 40.893678], [-73.885771, 40.893729], [-73.885743, 40.89378], [-73.88572, 40.893822], [-73.885686, 40.893886], [-73.885634, 40.893981], [-73.885614, 40.894017], [-73.88559, 40.894062], [-73.885565, 40.894107], [-73.88554, 40.894153], [-73.885515, 40.894198], [-73.885491, 40.894243], [-73.885466, 40.894288], [-73.885442, 40.894332], [-73.885418, 40.894376], [-73.885394, 40.89442], [-73.885369, 40.894464], [-73.885345, 40.894508], [-73.88532, 40.894557], [-73.885295, 40.894605], [-73.88527, 40.894653], [-73.885245, 40.894701], [-73.885221, 40.89475], [-73.885209, 40.894772], [-73.885196, 40.894798], [-73.885175, 40.89484], [-73.885155, 40.894883], [-73.885135, 40.894926], [-73.885122, 40.894954], [-73.885115, 40.894968], [-73.885098, 40.895004], [-73.885098, 40.895004], [-73.885098, 40.895004], [-73.885098, 40.895004], [-73.885095, 40.89501], [-73.884997, 40.895233], [-73.884907, 40.895458], [-73.884826, 40.895685], [-73.884766, 40.895875], [-73.884754, 40.895914], [-73.884691, 40.896144], [-73.88466, 40.896278], [-73.884634, 40.896414], [-73.884613, 40.89655], [-73.884598, 40.896686], [-73.884588, 40.896822], [-73.884583, 40.896959], [-73.884585, 40.897124], [-73.884593, 40.897288], [-73.884609, 40.897452], [-73.88462, 40.897533], [-73.88463, 40.897602], [-73.884632, 40.897616], [-73.884642, 40.897671], [-73.884658, 40.897755], [-73.884662, 40.897779], [-73.8847, 40.897942], [-73.884703, 40.897954], [-73.884707, 40.897968], [-73.884745, 40.898103], [-73.884783, 40.898224], [-73.884825, 40.898345], [-73.884872, 40.898466], [-73.884913, 40.898568], [-73.884959, 40.89867], [-73.885009, 40.89877], [-73.885063, 40.89887], [-73.885121, 40.898968], [-73.885183, 40.899064], [-73.885249, 40.899159], [-73.885311, 40.899241], [-73.885377, 40.899321], [-73.885446, 40.8994], [-73.885519, 40.899477], [-73.885595, 40.899552]]], [[[-73.888937, 40.901667], [-73.888912, 40.901713], [-73.888887, 40.901759], [-73.888862, 40.901805], [-73.888837, 40.901851], [-73.888832, 40.901861], [-73.888718, 40.90209], [-73.888586, 40.902341], [-73.888567, 40.90238], [-73.888546, 40.902423], [-73.888454, 40.902625], [-73.888357, 40.902858], [-73.888127, 40.903352], [-73.887457, 40.904981], [-73.886963, 40.906437], [-73.886876, 40.906708], [-73.886782, 40.906977], [-73.886681, 40.907245], [-73.886572, 40.907512], [-73.886457, 40.907777], [-73.886335, 40.90804], [-73.886206, 40.908301], [-73.88683, 40.908485], [-73.887639, 40.908723], [-73.896483, 40.911329], [-73.896407, 40.908752], [-73.896242, 40.904446], [-73.896229, 40.904131], [-73.896194, 40.903318], [-73.896239, 40.902977], [-73.896329, 40.902574], [-73.896425, 40.902134], [-73.896531, 40.901653], [-73.896532, 40.901652], [-73.896532, 40.901649], [-73.896532, 40.901645], [-73.896531, 40.901646], [-73.896527, 40.901616], [-73.896519, 40.901581], [-73.896506, 40.901527], [-73.89649, 40.901471], [-73.89648, 40.901439], [-73.896465, 40.901401], [-73.896444, 40.90136], [-73.896423, 40.901311], [-73.896393, 40.901249], [-73.896351, 40.901176], [-73.896309, 40.90112], [-73.89627, 40.90107], [-73.896241, 40.90103], [-73.896198, 40.900976], [-73.896098, 40.900852], [-73.895981, 40.900717], [-73.895859, 40.900584], [-73.895711, 40.900438], [-73.895558, 40.900295], [-73.895506, 40.900248], [-73.895452, 40.900202], [-73.895397, 40.900157], [-73.895339, 40.900114], [-73.895279, 40.900072], [-73.895219, 40.900035], [-73.895157, 40.9], [-73.895093, 40.899966], [-73.895029, 40.899933], [-73.895009, 40.899924], [-73.894948, 40.899898], [-73.894886, 40.899873], [-73.894823, 40.899849], [-73.894758, 40.899828], [-73.894693, 40.899808], [-73.894627, 40.89979], [-73.89456, 40.899773], [-73.894494, 40.899762], [-73.894428, 40.89975], [-73.894421, 40.899749], [-73.894361, 40.899739], [-73.894295, 40.899727], [-73.894229, 40.899716], [-73.894117, 40.899701], [-73.894004, 40.899689], [-73.893886, 40.899678], [-73.893844, 40.899675], [-73.893642, 40.89966], [-73.89344, 40.899647], [-73.893287, 40.899642], [-73.893134, 40.89964], [-73.892981, 40.899641], [-73.892845, 40.899643], [-73.892709, 40.899647], [-73.892573, 40.899655], [-73.892437, 40.899665], [-73.892293, 40.899678], [-73.89215, 40.899694], [-73.892008, 40.899712], [-73.891917, 40.899725], [-73.891827, 40.89974], [-73.891767, 40.89975], [-73.891734, 40.899713], [-73.891638, 40.899775], [-73.891526, 40.899798], [-73.891427, 40.899821], [-73.891329, 40.899846], [-73.891232, 40.899873], [-73.891136, 40.899902], [-73.891035, 40.899935], [-73.890935, 40.89997], [-73.890837, 40.900008], [-73.890748, 40.900045], [-73.890741, 40.900048], [-73.890624, 40.900102], [-73.890592, 40.900117], [-73.890446, 40.90019], [-73.890303, 40.900267], [-73.89021, 40.90032], [-73.89012, 40.900377], [-73.890033, 40.900435], [-73.889948, 40.900495], [-73.889866, 40.900557], [-73.889786, 40.900622], [-73.889719, 40.900676], [-73.889654, 40.900731], [-73.889591, 40.900788], [-73.88953, 40.900846], [-73.889468, 40.900911], [-73.889407, 40.900976], [-73.88935, 40.901043], [-73.889295, 40.901112], [-73.889243, 40.901181], [-73.889194, 40.901252], [-73.889166, 40.901296], [-73.889136, 40.901343], [-73.889106, 40.901391], [-73.889077, 40.901438], [-73.889047, 40.901486], [-73.889019, 40.901531], [-73.888992, 40.901577], [-73.888964, 40.901622], [-73.888937, 40.901667]]], [[[-73.88705, 40.89031], [-73.886892, 40.890427], [-73.886636, 40.890643], [-73.886385, 40.890863], [-73.886138, 40.891085], [-73.885896, 40.89131], [-73.885082, 40.892136], [-73.884263, 40.89296], [-73.883439, 40.893781], [-73.882611, 40.8946], [-73.882573, 40.89464], [-73.882531, 40.894684], [-73.882489, 40.894728], [-73.882447, 40.894772], [-73.882405, 40.894816], [-73.882363, 40.894861], [-73.88232, 40.894905], [-73.882284, 40.894945], [-73.882248, 40.894985], [-73.882212, 40.895025], [-73.882174, 40.895067], [-73.882171, 40.895071], [-73.882172, 40.895072], [-73.881608, 40.895665], [-73.881593, 40.895679], [-73.881524, 40.895744], [-73.881457, 40.895811], [-73.881416, 40.895854], [-73.881375, 40.895898], [-73.881334, 40.895941], [-73.881293, 40.895984], [-73.881252, 40.896028], [-73.881211, 40.896071], [-73.88117, 40.896114], [-73.88112, 40.896177], [-73.881072, 40.896242], [-73.881027, 40.896307], [-73.880994, 40.896345], [-73.880965, 40.896379], [-73.880961, 40.896383], [-73.880929, 40.896422], [-73.880924, 40.896427], [-73.880896, 40.89646], [-73.880791, 40.896583], [-73.880688, 40.896707], [-73.880636, 40.896773], [-73.880628, 40.896783], [-73.880696, 40.89689], [-73.880709, 40.896916], [-73.88072, 40.896936], [-73.880742, 40.896981], [-73.880765, 40.897026], [-73.880787, 40.897071], [-73.88081, 40.897115], [-73.880834, 40.897164], [-73.880858, 40.897213], [-73.880882, 40.897262], [-73.880905, 40.897311], [-73.88093, 40.89736], [-73.880951, 40.897405], [-73.88097, 40.89745], [-73.880987, 40.897496], [-73.881002, 40.897542], [-73.881015, 40.897589], [-73.881026, 40.897636], [-73.881035, 40.897683], [-73.881042, 40.89773], [-73.881047, 40.897778], [-73.88105, 40.897825], [-73.881051, 40.897867], [-73.881051, 40.89791], [-73.881048, 40.897952], [-73.881044, 40.897994], [-73.881039, 40.898035], [-73.881032, 40.898077], [-73.88102, 40.898126], [-73.881007, 40.898175], [-73.880991, 40.898223], [-73.880973, 40.898271], [-73.880952, 40.898319], [-73.88093, 40.898366], [-73.880907, 40.898412], [-73.880882, 40.898458], [-73.880854, 40.898503], [-73.880824, 40.898548], [-73.880792, 40.898592], [-73.880759, 40.898634], [-73.880723, 40.898676], [-73.880686, 40.898717], [-73.880646, 40.898757], [-73.880605, 40.898796], [-73.880562, 40.898834], [-73.880518, 40.898871], [-73.880471, 40.898907], [-73.880426, 40.89894], [-73.88038, 40.898974], [-73.880335, 40.899008], [-73.880289, 40.899042], [-73.880244, 40.899076], [-73.880198, 40.899109], [-73.880151, 40.899145], [-73.880103, 40.899181], [-73.880056, 40.899217], [-73.880034, 40.899234], [-73.880008, 40.899253], [-73.879966, 40.899288], [-73.879923, 40.899322], [-73.879883, 40.899356], [-73.879842, 40.899392], [-73.879801, 40.899428], [-73.879729, 40.899504], [-73.879708, 40.89953], [-73.879687, 40.899554], [-73.879659, 40.899587], [-73.879634, 40.899622], [-73.879601, 40.899666], [-73.879558, 40.899735], [-73.879542, 40.899762], [-73.879535, 40.899772], [-73.87953, 40.899802], [-73.879421, 40.900454], [-73.87942, 40.900462], [-73.878498, 40.906003], [-73.87874, 40.906075], [-73.879391, 40.90627], [-73.879905, 40.906423], [-73.880775, 40.906683], [-73.881596, 40.906928], [-73.881665, 40.906949], [-73.882619, 40.907233], [-73.882706, 40.907259], [-73.883441, 40.907479], [-73.883577, 40.907519], [-73.88414, 40.907687], [-73.884666, 40.907844], [-73.884896, 40.907915], [-73.885955, 40.908227], [-73.885973, 40.908232], [-73.886192, 40.907761], [-73.886213, 40.907713], [-73.886216, 40.907705], [-73.886234, 40.907665], [-73.886248, 40.907631], [-73.886255, 40.907616], [-73.886275, 40.907568], [-73.886296, 40.907519], [-73.886317, 40.907471], [-73.886353, 40.907381], [-73.886385, 40.90729], [-73.886413, 40.907198], [-73.886438, 40.907105], [-73.886459, 40.907012], [-73.886478, 40.906909], [-73.886493, 40.906805], [-73.886503, 40.906701], [-73.88651, 40.906597], [-73.886512, 40.906492], [-73.88651, 40.906388], [-73.886509, 40.906333], [-73.886507, 40.906277], [-73.886502, 40.906222], [-73.886495, 40.906167], [-73.886486, 40.906112], [-73.886475, 40.906058], [-73.886463, 40.906005], [-73.886451, 40.905952], [-73.886438, 40.905899], [-73.886426, 40.905846], [-73.886414, 40.905793], [-73.886403, 40.905744], [-73.886392, 40.905695], [-73.886381, 40.905646], [-73.886373, 40.905612], [-73.886369, 40.905597], [-73.886358, 40.905548], [-73.886347, 40.905498], [-73.886335, 40.905449], [-73.886324, 40.9054], [-73.886313, 40.905351], [-73.886302, 40.905306], [-73.88629, 40.905261], [-73.886279, 40.905215], [-73.886268, 40.90517], [-73.886257, 40.905125], [-73.886221, 40.904951], [-73.886192, 40.904776], [-73.886171, 40.9046], [-73.886166, 40.90455], [-73.886161, 40.904501], [-73.886157, 40.904452], [-73.886152, 40.9044], [-73.886147, 40.904353], [-73.886144, 40.904319], [-73.886142, 40.904303], [-73.886141, 40.904249], [-73.886139, 40.904194], [-73.886137, 40.90414], [-73.886136, 40.904085], [-73.886135, 40.90399], [-73.886138, 40.903896], [-73.886145, 40.903801], [-73.886155, 40.903707], [-73.88617, 40.903613], [-73.886188, 40.903519], [-73.88621, 40.903426], [-73.886236, 40.903333], [-73.886262, 40.903251], [-73.886292, 40.903169], [-73.886325, 40.903088], [-73.886362, 40.903007], [-73.886402, 40.902928], [-73.886446, 40.90285], [-73.886493, 40.902773], [-73.886543, 40.902697], [-73.886656, 40.902539], [-73.886775, 40.902385], [-73.8869, 40.902234], [-73.887032, 40.902086], [-73.88717, 40.901941], [-73.887244, 40.901867], [-73.887369, 40.901748], [-73.887407, 40.901713], [-73.887464, 40.901661], [-73.887619, 40.901527], [-73.887662, 40.901492], [-73.887709, 40.901454], [-73.887757, 40.901417], [-73.887785, 40.901394], [-73.887718, 40.901298], [-73.887698, 40.901271], [-73.887664, 40.901226], [-73.88765, 40.901209], [-73.88763, 40.901184], [-73.8876, 40.901148], [-73.887548, 40.901089], [-73.887493, 40.90103], [-73.887436, 40.900973], [-73.887372, 40.900914], [-73.887306, 40.900855], [-73.887293, 40.900844], [-73.887226, 40.900789], [-73.887156, 40.900734], [-73.887084, 40.900682], [-73.88701, 40.900631], [-73.886934, 40.900582], [-73.886856, 40.900534], [-73.886586, 40.900381], [-73.886534, 40.900354], [-73.886387, 40.900277], [-73.886353, 40.90026], [-73.886336, 40.90025], [-73.886311, 40.900237], [-73.886284, 40.900223], [-73.886233, 40.900196], [-73.886182, 40.900169], [-73.886133, 40.900141], [-73.886107, 40.900126], [-73.886083, 40.900112], [-73.885991, 40.900055], [-73.885901, 40.899997], [-73.885814, 40.899936], [-73.885719, 40.899867], [-73.885627, 40.899796], [-73.885539, 40.899722], [-73.885453, 40.899647], [-73.885412, 40.899608], [-73.885371, 40.899569], [-73.885326, 40.899524], [-73.885293, 40.89949], [-73.885217, 40.899408], [-73.885146, 40.899325], [-73.885078, 40.89924], [-73.885014, 40.899153], [-73.884953, 40.899065], [-73.884932, 40.899032], [-73.884896, 40.898975], [-73.884815, 40.898835], [-73.884741, 40.898693], [-73.884703, 40.898612], [-73.884642, 40.898462], [-73.884637, 40.898462], [-73.884612, 40.898403], [-73.884583, 40.898325], [-73.884557, 40.898255], [-73.884509, 40.898106], [-73.88447, 40.897962], [-73.884436, 40.897818], [-73.884408, 40.897673], [-73.884397, 40.897595], [-73.884386, 40.897527], [-73.88438, 40.897469], [-73.884371, 40.89738], [-73.884368, 40.897357], [-73.884359, 40.897234], [-73.884355, 40.897087], [-73.884355, 40.896925], [-73.884362, 40.896764], [-73.884377, 40.896603], [-73.884399, 40.896442], [-73.884428, 40.896282], [-73.884464, 40.896123], [-73.884529, 40.895883], [-73.884604, 40.895644], [-73.884688, 40.895407], [-73.884783, 40.895173], [-73.884887, 40.894938], [-73.884998, 40.894705], [-73.885116, 40.894474], [-73.885242, 40.894245], [-73.885267, 40.894201], [-73.885291, 40.894155], [-73.885316, 40.89411], [-73.885341, 40.894064], [-73.885357, 40.894035], [-73.885366, 40.894019], [-73.885385, 40.893982], [-73.88539, 40.893973], [-73.885415, 40.893928], [-73.88544, 40.893882], [-73.885467, 40.893832], [-73.885494, 40.893781], [-73.885521, 40.893731], [-73.885548, 40.89368], [-73.885563, 40.893653], [-73.885576, 40.89363], [-73.885603, 40.89358], [-73.88563, 40.893529], [-73.885656, 40.893483], [-73.885681, 40.893437], [-73.885707, 40.89339], [-73.885732, 40.893344], [-73.885758, 40.893298], [-73.885784, 40.893252], [-73.885809, 40.893206], [-73.885835, 40.893159], [-73.885861, 40.89311], [-73.885886, 40.893061], [-73.885912, 40.893011], [-73.885938, 40.892962], [-73.885963, 40.892913], [-73.885989, 40.892863], [-73.886015, 40.892814], [-73.886041, 40.892764], [-73.886066, 40.892715], [-73.886089, 40.89267], [-73.886111, 40.892625], [-73.886133, 40.89258], [-73.886155, 40.892535], [-73.886178, 40.89249], [-73.8862, 40.892445], [-73.886222, 40.892401], [-73.886247, 40.892351], [-73.886271, 40.892301], [-73.886296, 40.892251], [-73.886321, 40.892201], [-73.886345, 40.892151], [-73.88637, 40.892101], [-73.886393, 40.892051], [-73.886416, 40.892], [-73.886438, 40.89195], [-73.886461, 40.8919], [-73.886484, 40.89185], [-73.886507, 40.891799], [-73.886526, 40.891754], [-73.886546, 40.891709], [-73.886565, 40.891664], [-73.886584, 40.891619], [-73.886603, 40.891574], [-73.886623, 40.891529], [-73.886642, 40.891483], [-73.886661, 40.891435], [-73.886681, 40.891387], [-73.8867, 40.891339], [-73.886719, 40.891291], [-73.886738, 40.891243], [-73.886757, 40.891195], [-73.886777, 40.891146], [-73.886796, 40.891098], [-73.886815, 40.89105], [-73.886831, 40.891001], [-73.886847, 40.890952], [-73.886864, 40.890903], [-73.88688, 40.890853], [-73.886885, 40.890836], [-73.886896, 40.890804], [-73.886912, 40.890755], [-73.886928, 40.890706], [-73.886936, 40.890681], [-73.886944, 40.890656], [-73.886961, 40.890607], [-73.886977, 40.890558], [-73.886992, 40.890511], [-73.886993, 40.890508], [-73.886993, 40.890508], [-73.886993, 40.890508], [-73.88705, 40.89031]]], [[[-73.879843, 40.891138], [-73.88015, 40.891686], [-73.880297, 40.891951], [-73.880439, 40.892252], [-73.88052, 40.892491], [-73.880548, 40.892619], [-73.88058, 40.892862], [-73.880584, 40.893025], [-73.880573, 40.893231], [-73.880355, 40.894807], [-73.88033, 40.894977], [-73.880326, 40.895009], [-73.880337, 40.895033], [-73.880361, 40.895052], [-73.880392, 40.895067], [-73.880425, 40.895076], [-73.880463, 40.895081], [-73.880505, 40.89508], [-73.880568, 40.895077], [-73.880631, 40.895069], [-73.880693, 40.895056], [-73.880931, 40.894974], [-73.881124, 40.894891], [-73.881515, 40.894713], [-73.881587, 40.894687], [-73.881676, 40.89464], [-73.881732, 40.894608], [-73.881793, 40.894572], [-73.881841, 40.894543], [-73.88189, 40.894512], [-73.881939, 40.894482], [-73.881989, 40.894451], [-73.882038, 40.894421], [-73.882087, 40.89439], [-73.882111, 40.894375], [-73.882136, 40.89436], [-73.882188, 40.894324], [-73.882203, 40.894314], [-73.88224, 40.894288], [-73.882292, 40.894253], [-73.882324, 40.894231], [-73.882344, 40.894217], [-73.882396, 40.894181], [-73.882447, 40.894146], [-73.882496, 40.894111], [-73.882707, 40.893953], [-73.882941, 40.893759], [-73.883096, 40.89363], [-73.883224, 40.893507], [-73.883443, 40.893299], [-73.883692, 40.893039], [-73.883827, 40.892904], [-73.884128, 40.892574], [-73.884435, 40.892248], [-73.884749, 40.891926], [-73.88507, 40.891608], [-73.885398, 40.891294], [-73.885732, 40.890983], [-73.886073, 40.890677], [-73.88642, 40.890375], [-73.88642, 40.890375], [-73.88646, 40.89034], [-73.88653, 40.89028], [-73.886531, 40.890281], [-73.886679, 40.890163], [-73.886832, 40.890048], [-73.886989, 40.889937], [-73.887151, 40.88983], [-73.887152, 40.889827], [-73.887152, 40.889823], [-73.887165, 40.88977], [-73.887177, 40.889718], [-73.887185, 40.88967], [-73.887192, 40.889623], [-73.8872, 40.889576], [-73.887208, 40.889528], [-73.887216, 40.889482], [-73.887247, 40.889227], [-73.88727, 40.888972], [-73.887285, 40.888716], [-73.887291, 40.888461], [-73.887293, 40.888226], [-73.88729, 40.887991], [-73.887282, 40.887756], [-73.887277, 40.887656], [-73.887272, 40.887584], [-73.887269, 40.887521], [-73.887265, 40.887471], [-73.887264, 40.887463], [-73.887257, 40.887369], [-73.887253, 40.887317], [-73.887249, 40.887267], [-73.887248, 40.887252], [-73.887245, 40.887216], [-73.88724, 40.887164], [-73.887238, 40.887139], [-73.887236, 40.887121], [-73.887235, 40.887111], [-73.88723, 40.887058], [-73.887225, 40.887005], [-73.88722, 40.886952], [-73.887215, 40.886899], [-73.887209, 40.886846], [-73.887202, 40.886794], [-73.887195, 40.886741], [-73.887188, 40.886689], [-73.887181, 40.886637], [-73.887174, 40.886585], [-73.887168, 40.886533], [-73.887161, 40.886481], [-73.887154, 40.886429], [-73.88712, 40.886208], [-73.887083, 40.885987], [-73.887055, 40.885831], [-73.887053, 40.885821], [-73.887043, 40.885767], [-73.886999, 40.885547], [-73.886989, 40.885501], [-73.886979, 40.885454], [-73.886969, 40.885408], [-73.88696, 40.885361], [-73.88695, 40.885315], [-73.88694, 40.885269], [-73.88693, 40.885225], [-73.88692, 40.885181], [-73.88691, 40.885137], [-73.8869, 40.885093], [-73.88689, 40.885049], [-73.886877, 40.885001], [-73.886869, 40.884967], [-73.886865, 40.884952], [-73.886853, 40.884904], [-73.886841, 40.884855], [-73.886828, 40.884807], [-73.886816, 40.884757], [-73.886815, 40.884724], [-73.886805, 40.884673], [-73.886794, 40.88462], [-73.886786, 40.884583], [-73.886777, 40.884536], [-73.886769, 40.884495], [-73.88676, 40.884466], [-73.886744, 40.884435], [-73.886722, 40.884408], [-73.886691, 40.884377], [-73.886571, 40.884322], [-73.88636, 40.884229], [-73.886326, 40.884267], [-73.884622, 40.88346], [-73.884292, 40.883304], [-73.884199, 40.88327], [-73.884125, 40.883252], [-73.884024, 40.883237], [-73.883946, 40.883231], [-73.883841, 40.883236], [-73.883697, 40.883258], [-73.882836, 40.883466], [-73.882774, 40.883472], [-73.882695, 40.883471], [-73.882635, 40.883464], [-73.882577, 40.883453], [-73.882503, 40.883432], [-73.882313, 40.883342], [-73.882047, 40.883214], [-73.88131, 40.882858], [-73.879362, 40.885512], [-73.878095, 40.887238], [-73.878229, 40.8877], [-73.878271, 40.887806], [-73.878365, 40.88802], [-73.878747, 40.888889], [-73.878923, 40.88929], [-73.879093, 40.889677], [-73.879264, 40.890065], [-73.879356, 40.890264], [-73.879652, 40.890798], [-73.879843, 40.891138]]], [[[-73.870515, 40.900631], [-73.870345, 40.900735], [-73.870155, 40.900858], [-73.869968, 40.900979], [-73.869855, 40.901063], [-73.869716, 40.901167], [-73.869614, 40.901243], [-73.869516, 40.901316], [-73.869494, 40.901333], [-73.869415, 40.901392], [-73.869299, 40.901479], [-73.86924, 40.901532], [-73.869145, 40.901617], [-73.869048, 40.901705], [-73.868971, 40.901775], [-73.868922, 40.901819], [-73.868861, 40.901874], [-73.868789, 40.901951], [-73.868731, 40.902012], [-73.868662, 40.902084], [-73.868591, 40.90216], [-73.868538, 40.902215], [-73.86848, 40.902276], [-73.868475, 40.902283], [-73.868465, 40.902318], [-73.868469, 40.902351], [-73.868471, 40.902382], [-73.868469, 40.902403], [-73.868466, 40.902421], [-73.868465, 40.902429], [-73.868461, 40.902447], [-73.868453, 40.90247], [-73.868447, 40.902486], [-73.868441, 40.902501], [-73.868434, 40.902518], [-73.868429, 40.90253], [-73.868424, 40.902542], [-73.868417, 40.902553], [-73.868412, 40.90256], [-73.868404, 40.902572], [-73.868395, 40.902583], [-73.868384, 40.902599], [-73.868378, 40.902607], [-73.868371, 40.902616], [-73.868358, 40.902634], [-73.868347, 40.902649], [-73.868336, 40.902663], [-73.868324, 40.902679], [-73.868312, 40.902697], [-73.868293, 40.902718], [-73.868281, 40.902729], [-73.868264, 40.902744], [-73.868239, 40.902766], [-73.868219, 40.902782], [-73.868199, 40.902797], [-73.86819, 40.902803], [-73.868164, 40.902818], [-73.868144, 40.902828], [-73.868127, 40.902836], [-73.868116, 40.902841], [-73.868101, 40.902849], [-73.868092, 40.902854], [-73.868081, 40.902859], [-73.868071, 40.902865], [-73.868062, 40.902869], [-73.868054, 40.902874], [-73.868045, 40.902878], [-73.868031, 40.90289], [-73.868021, 40.9029], [-73.868017, 40.902905], [-73.868005, 40.902918], [-73.87214, 40.904138], [-73.8756, 40.905159], [-73.877788, 40.905804], [-73.878194, 40.903259], [-73.878415, 40.901874], [-73.878391, 40.901868], [-73.878485, 40.901434], [-73.878634, 40.900554], [-73.87862, 40.90059], [-73.878733, 40.899879], [-73.878823, 40.899314], [-73.878888, 40.898907], [-73.878953, 40.898581], [-73.879101, 40.897933], [-73.879216, 40.897497], [-73.879335, 40.897047], [-73.879431, 40.89668], [-73.879569, 40.89616], [-73.879644, 40.895875], [-73.879683, 40.895726], [-73.879709, 40.895626], [-73.879742, 40.895502], [-73.879778, 40.895368], [-73.877498, 40.895514], [-73.877292, 40.895528], [-73.87719, 40.895813], [-73.877179, 40.895843], [-73.877177, 40.895848], [-73.877157, 40.895905], [-73.877134, 40.895971], [-73.877116, 40.89602], [-73.877095, 40.89607], [-73.877076, 40.896108], [-73.877052, 40.896154], [-73.877034, 40.896191], [-73.87701, 40.896239], [-73.876991, 40.896275], [-73.87697, 40.896318], [-73.876954, 40.89635], [-73.876922, 40.896404], [-73.876894, 40.896447], [-73.876865, 40.896493], [-73.876828, 40.896551], [-73.876793, 40.896605], [-73.876748, 40.896677], [-73.87672, 40.89672], [-73.876671, 40.896787], [-73.876651, 40.896815], [-73.876622, 40.896854], [-73.876592, 40.896895], [-73.876561, 40.896938], [-73.876531, 40.896978], [-73.876504, 40.897015], [-73.876488, 40.897037], [-73.876455, 40.897083], [-73.876433, 40.897113], [-73.876414, 40.897134], [-73.876401, 40.897149], [-73.876392, 40.897159], [-73.876029, 40.897571], [-73.875692, 40.897913], [-73.875453, 40.898115], [-73.875156, 40.898337], [-73.874797, 40.898577], [-73.874611, 40.89869], [-73.874605, 40.898693], [-73.874545, 40.898725], [-73.874054, 40.898988], [-73.873676, 40.899161], [-73.8732, 40.899363], [-73.873147, 40.899384], [-73.872848, 40.899503], [-73.872848, 40.899503], [-73.872653, 40.899579], [-73.872457, 40.899656], [-73.872195, 40.899761], [-73.872002, 40.899842], [-73.871747, 40.899962], [-73.871491, 40.900085], [-73.87136, 40.90015], [-73.871331, 40.900165], [-73.871095, 40.900289], [-73.870769, 40.900481], [-73.870515, 40.900631]]], [[[-73.887551, 40.884372], [-73.887518, 40.884411], [-73.887486, 40.884447], [-73.887459, 40.884478], [-73.88742, 40.884529], [-73.88742, 40.884529], [-73.887417, 40.884534], [-73.887389, 40.884568], [-73.887382, 40.884577], [-73.88736, 40.884605], [-73.88734, 40.884633], [-73.887321, 40.884662], [-73.887303, 40.884691], [-73.887286, 40.88472], [-73.88727, 40.88475], [-73.887255, 40.88478], [-73.887241, 40.884814], [-73.887228, 40.884848], [-73.887217, 40.884882], [-73.887207, 40.884917], [-73.887199, 40.884952], [-73.887192, 40.884987], [-73.887187, 40.885022], [-73.887184, 40.885057], [-73.887182, 40.885092], [-73.887182, 40.885128], [-73.887184, 40.885163], [-73.887187, 40.885198], [-73.887191, 40.885233], [-73.887198, 40.885268], [-73.887208, 40.88532], [-73.88722, 40.885372], [-73.887231, 40.885425], [-73.887242, 40.885477], [-73.887253, 40.885529], [-73.887265, 40.885582], [-73.887276, 40.885634], [-73.887287, 40.885687], [-73.887298, 40.885737], [-73.887308, 40.885788], [-73.887319, 40.885838], [-73.887329, 40.885889], [-73.88734, 40.885939], [-73.887344, 40.885959], [-73.887351, 40.885989], [-73.887361, 40.88604], [-73.887371, 40.886088], [-73.887381, 40.886136], [-73.887391, 40.886184], [-73.887401, 40.886233], [-73.887411, 40.886281], [-73.887421, 40.886329], [-73.887431, 40.886377], [-73.887441, 40.886425], [-73.887451, 40.886475], [-73.887461, 40.886524], [-73.887471, 40.886573], [-73.887482, 40.886623], [-73.887492, 40.886672], [-73.887502, 40.886722], [-73.887512, 40.886771], [-73.887524, 40.886825], [-73.887535, 40.886879], [-73.887546, 40.886933], [-73.887558, 40.886987], [-73.887569, 40.887041], [-73.88758, 40.887094], [-73.887586, 40.887121], [-73.887592, 40.887148], [-73.887603, 40.887201], [-73.887614, 40.887253], [-73.887625, 40.887306], [-73.887636, 40.887358], [-73.887648, 40.887411], [-73.887659, 40.887464], [-73.88767, 40.887516], [-73.887712, 40.887725], [-73.887745, 40.887935], [-73.887769, 40.888147], [-73.887772, 40.888183], [-73.887785, 40.888357], [-73.887792, 40.888569], [-73.887791, 40.888729], [-73.887784, 40.88889], [-73.887772, 40.88905], [-73.887769, 40.889074], [-73.887802, 40.889056], [-73.887836, 40.889039], [-73.887871, 40.889022], [-73.887906, 40.889007], [-73.887946, 40.88899], [-73.887988, 40.888974], [-73.88803, 40.888959], [-73.888072, 40.888945], [-73.888116, 40.888932], [-73.888159, 40.888921], [-73.888204, 40.888911], [-73.888248, 40.888902], [-73.888294, 40.888894], [-73.888339, 40.888887], [-73.888385, 40.888881], [-73.888431, 40.888877], [-73.888477, 40.888874], [-73.888523, 40.888872], [-73.888569, 40.888871], [-73.888638, 40.888868], [-73.888707, 40.888865], [-73.888776, 40.888862], [-73.888787, 40.888862], [-73.888845, 40.888859], [-73.888913, 40.888856], [-73.889001, 40.888854], [-73.889088, 40.88885], [-73.889175, 40.888844], [-73.889262, 40.888836], [-73.889349, 40.888826], [-73.889435, 40.888814], [-73.88952, 40.8888], [-73.889562, 40.888794], [-73.889604, 40.888788], [-73.889646, 40.88878], [-73.889687, 40.888772], [-73.889946, 40.888711], [-73.890205, 40.888649], [-73.890542, 40.888567], [-73.890878, 40.888484], [-73.890894, 40.88848], [-73.891214, 40.888399], [-73.891496, 40.888328], [-73.891775, 40.888251], [-73.89191, 40.888211], [-73.892052, 40.88817], [-73.892327, 40.888083], [-73.892377, 40.888065], [-73.892427, 40.888048], [-73.892478, 40.88803], [-73.89254, 40.888007], [-73.892601, 40.887983], [-73.89266, 40.887958], [-73.892719, 40.887932], [-73.892777, 40.887904], [-73.892834, 40.887875], [-73.892915, 40.88783], [-73.892995, 40.887783], [-73.893072, 40.887734], [-73.893148, 40.887683], [-73.893212, 40.887637], [-73.893274, 40.887589], [-73.893334, 40.88754], [-73.893392, 40.88749], [-73.893448, 40.887438], [-73.893551, 40.887337], [-73.893649, 40.887233], [-73.893744, 40.887127], [-73.893751, 40.887118], [-73.89385, 40.886999], [-73.893944, 40.886878], [-73.894033, 40.886755], [-73.8941, 40.88666], [-73.894163, 40.886564], [-73.894222, 40.886467], [-73.894276, 40.886368], [-73.894326, 40.886268], [-73.894372, 40.886166], [-73.89446, 40.885942], [-73.894518, 40.885778], [-73.894523, 40.885762], [-73.894539, 40.885716], [-73.894541, 40.885708], [-73.894543, 40.8857], [-73.894544, 40.885691], [-73.894545, 40.885683], [-73.894546, 40.885674], [-73.894546, 40.885666], [-73.894546, 40.885664], [-73.894484, 40.885653], [-73.894363, 40.88563], [-73.888002, 40.884429], [-73.887858, 40.884401], [-73.887574, 40.884348], [-73.887551, 40.884372]]], [[[-73.886255, 40.903919], [-73.886251, 40.904043], [-73.886251, 40.904167], [-73.886257, 40.904291], [-73.886271, 40.904484], [-73.886292, 40.904677], [-73.886322, 40.90487], [-73.886331, 40.904917], [-73.886341, 40.904964], [-73.88635, 40.905011], [-73.88636, 40.905058], [-73.886372, 40.90511], [-73.886385, 40.905163], [-73.886397, 40.905215], [-73.886409, 40.905268], [-73.886421, 40.905321], [-73.886426, 40.905341], [-73.886617, 40.906245], [-73.88662, 40.906266], [-73.886626, 40.906371], [-73.886628, 40.906433], [-73.886629, 40.906473], [-73.886627, 40.906579], [-73.88663, 40.906583], [-73.886637, 40.906587], [-73.886642, 40.906588], [-73.886648, 40.906586], [-73.886653, 40.906583], [-73.88667, 40.906535], [-73.886686, 40.906488], [-73.886703, 40.906441], [-73.886719, 40.906394], [-73.886735, 40.906347], [-73.886751, 40.9063], [-73.886767, 40.906253], [-73.886784, 40.906201], [-73.886802, 40.90615], [-73.886819, 40.906098], [-73.886836, 40.906047], [-73.886853, 40.905995], [-73.88687, 40.905944], [-73.886887, 40.905892], [-73.886904, 40.905841], [-73.886922, 40.905789], [-73.886939, 40.905738], [-73.886956, 40.905686], [-73.886973, 40.905635], [-73.88699, 40.905583], [-73.887007, 40.905532], [-73.887025, 40.905481], [-73.887042, 40.90543], [-73.887059, 40.905378], [-73.887076, 40.905327], [-73.887093, 40.905276], [-73.887111, 40.905227], [-73.887128, 40.905179], [-73.887146, 40.905131], [-73.887163, 40.905083], [-73.887181, 40.905034], [-73.887198, 40.904986], [-73.887215, 40.904938], [-73.887233, 40.904889], [-73.88725, 40.904841], [-73.887268, 40.904793], [-73.887286, 40.904743], [-73.887305, 40.904693], [-73.887324, 40.904644], [-73.887342, 40.904594], [-73.887361, 40.904544], [-73.88738, 40.904494], [-73.887398, 40.904445], [-73.887417, 40.904395], [-73.887437, 40.904345], [-73.887458, 40.904295], [-73.887478, 40.904244], [-73.887499, 40.904194], [-73.887519, 40.904144], [-73.88754, 40.904094], [-73.88756, 40.904044], [-73.88758, 40.903994], [-73.887599, 40.903945], [-73.887619, 40.903896], [-73.887638, 40.903846], [-73.887658, 40.903797], [-73.887677, 40.903748], [-73.887686, 40.903726], [-73.88764, 40.903703], [-73.887627, 40.90371], [-73.887603, 40.903721], [-73.887578, 40.903732], [-73.887552, 40.903742], [-73.887526, 40.903751], [-73.8875, 40.90376], [-73.887474, 40.903768], [-73.887447, 40.903775], [-73.887419, 40.903782], [-73.887392, 40.903788], [-73.887367, 40.903793], [-73.887342, 40.903796], [-73.887317, 40.903799], [-73.887292, 40.903802], [-73.887267, 40.903803], [-73.887242, 40.903805], [-73.887217, 40.903805], [-73.887192, 40.903805], [-73.887167, 40.903804], [-73.887142, 40.903803], [-73.887116, 40.903801], [-73.887092, 40.903798], [-73.887067, 40.903795], [-73.887042, 40.903791], [-73.887018, 40.903786], [-73.886993, 40.903781], [-73.886969, 40.903775], [-73.886946, 40.903769], [-73.886922, 40.903762], [-73.886899, 40.903754], [-73.886876, 40.903746], [-73.886854, 40.903737], [-73.886832, 40.903728], [-73.88681, 40.903718], [-73.886789, 40.903707], [-73.886768, 40.903696], [-73.886748, 40.903684], [-73.886728, 40.903672], [-73.886709, 40.90366], [-73.88669, 40.903647], [-73.886672, 40.903633], [-73.886655, 40.903619], [-73.886638, 40.903604], [-73.886622, 40.903589], [-73.886607, 40.903574], [-73.886592, 40.903558], [-73.886578, 40.903542], [-73.886565, 40.903526], [-73.886552, 40.903509], [-73.886541, 40.903492], [-73.88653, 40.903474], [-73.88652, 40.903457], [-73.88651, 40.903439], [-73.886502, 40.903421], [-73.886494, 40.903402], [-73.886487, 40.903384], [-73.886481, 40.903361], [-73.886476, 40.903339], [-73.886472, 40.903317], [-73.886469, 40.903294], [-73.886467, 40.903272], [-73.886467, 40.90326], [-73.886461, 40.903207], [-73.886461, 40.903132], [-73.886475, 40.903082], [-73.886426, 40.903143], [-73.886404, 40.903192], [-73.886371, 40.903286], [-73.886341, 40.903381], [-73.886316, 40.903477], [-73.886294, 40.903574], [-73.886277, 40.903671], [-73.886263, 40.903795], [-73.886255, 40.903919]]], [[[-73.887864, 40.901598], [-73.887839, 40.901618], [-73.88779, 40.901659], [-73.887743, 40.9017], [-73.887695, 40.901741], [-73.887671, 40.901761], [-73.887648, 40.901782], [-73.887644, 40.901785], [-73.887609, 40.901819], [-73.88757, 40.901857], [-73.887532, 40.901894], [-73.887493, 40.901932], [-73.887454, 40.901969], [-73.887412, 40.902012], [-73.88737, 40.902055], [-73.887327, 40.902098], [-73.887285, 40.90214], [-73.887252, 40.902177], [-73.887219, 40.902215], [-73.887185, 40.902252], [-73.887152, 40.902289], [-73.887119, 40.902326], [-73.887082, 40.90237], [-73.887045, 40.902413], [-73.887008, 40.902457], [-73.886971, 40.902501], [-73.886935, 40.902545], [-73.886881, 40.902612], [-73.88683, 40.90268], [-73.886782, 40.90275], [-73.886737, 40.902821], [-73.886696, 40.902893], [-73.886657, 40.902966], [-73.886645, 40.902987], [-73.886634, 40.903007], [-73.886623, 40.903029], [-73.886614, 40.90305], [-73.886605, 40.903071], [-73.886598, 40.903093], [-73.886592, 40.903115], [-73.886586, 40.903137], [-73.886582, 40.90316], [-73.886578, 40.903182], [-73.886576, 40.903205], [-73.886574, 40.903227], [-73.886574, 40.90325], [-73.886575, 40.903272], [-73.886576, 40.903295], [-73.886579, 40.903317], [-73.886583, 40.903339], [-73.886588, 40.903356], [-73.886594, 40.903372], [-73.886601, 40.903388], [-73.886609, 40.903404], [-73.886618, 40.90342], [-73.886627, 40.903435], [-73.886637, 40.903451], [-73.886647, 40.903466], [-73.886658, 40.90348], [-73.88667, 40.903495], [-73.886683, 40.903509], [-73.886696, 40.903523], [-73.88671, 40.903536], [-73.886724, 40.903549], [-73.886739, 40.903562], [-73.886754, 40.903574], [-73.88677, 40.903586], [-73.886787, 40.903597], [-73.886804, 40.903608], [-73.886822, 40.903619], [-73.88684, 40.903629], [-73.886858, 40.903638], [-73.886877, 40.903648], [-73.886896, 40.903656], [-73.886916, 40.903664], [-73.886936, 40.903672], [-73.886956, 40.903679], [-73.886977, 40.903685], [-73.886998, 40.903691], [-73.887019, 40.903697], [-73.887041, 40.903702], [-73.887062, 40.903706], [-73.887082, 40.903709], [-73.887103, 40.903712], [-73.887123, 40.903714], [-73.887143, 40.903716], [-73.887164, 40.903717], [-73.887184, 40.903718], [-73.887205, 40.903718], [-73.887226, 40.903717], [-73.887246, 40.903716], [-73.887267, 40.903715], [-73.887287, 40.903713], [-73.887307, 40.90371], [-73.887327, 40.903707], [-73.887347, 40.903703], [-73.887367, 40.903699], [-73.887387, 40.903695], [-73.887406, 40.903689], [-73.887425, 40.903684], [-73.887444, 40.903678], [-73.887463, 40.903671], [-73.887481, 40.903664], [-73.887499, 40.903656], [-73.887517, 40.903648], [-73.887534, 40.90364], [-73.887551, 40.903631], [-73.88758, 40.903612], [-73.887609, 40.903593], [-73.887637, 40.903573], [-73.887664, 40.903553], [-73.88769, 40.903532], [-73.887715, 40.90351], [-73.887739, 40.903487], [-73.887763, 40.903464], [-73.887785, 40.903441], [-73.887806, 40.903417], [-73.887813, 40.903409], [-73.887826, 40.903392], [-73.887845, 40.903367], [-73.887863, 40.903341], [-73.88788, 40.903315], [-73.887896, 40.903289], [-73.887927, 40.903231], [-73.887957, 40.903172], [-73.887983, 40.903113], [-73.888007, 40.903053], [-73.888029, 40.902992], [-73.888047, 40.902931], [-73.888063, 40.90287], [-73.888077, 40.902808], [-73.88809, 40.90274], [-73.8881, 40.902672], [-73.888107, 40.902604], [-73.888111, 40.902536], [-73.888113, 40.902468], [-73.888112, 40.9024], [-73.888108, 40.902332], [-73.888101, 40.902263], [-73.888092, 40.902196], [-73.888076, 40.902109], [-73.888056, 40.902024], [-73.888033, 40.901939], [-73.888007, 40.901854], [-73.887976, 40.90177], [-73.887943, 40.901687], [-73.887905, 40.901605], [-73.887889, 40.901576], [-73.887864, 40.901598]]], [[[-73.880541, 40.896407], [-73.881602, 40.895283], [-73.882326, 40.894532], [-73.883122, 40.893688], [-73.882967, 40.893816], [-73.882847, 40.89393], [-73.882737, 40.894021], [-73.882642, 40.894084], [-73.882514, 40.894181], [-73.882496, 40.894193], [-73.882485, 40.894201], [-73.882442, 40.89423], [-73.8824, 40.89426], [-73.882357, 40.894289], [-73.882304, 40.894325], [-73.88225, 40.89436], [-73.882197, 40.894396], [-73.882143, 40.894431], [-73.88209, 40.894466], [-73.88204, 40.894497], [-73.881991, 40.894528], [-73.881941, 40.894559], [-73.881893, 40.894588], [-73.881719, 40.894689], [-73.881541, 40.894786], [-73.88136, 40.894878], [-73.881244, 40.894934], [-73.881126, 40.894987], [-73.881006, 40.895037], [-73.880884, 40.895084], [-73.88082, 40.895107], [-73.880754, 40.895129], [-73.880688, 40.895149], [-73.88062, 40.895167], [-73.880552, 40.895183], [-73.880484, 40.895198], [-73.880478, 40.895199], [-73.880478, 40.895197], [-73.880331, 40.895222], [-73.880322, 40.895454], [-73.88031, 40.895626], [-73.880314, 40.895742], [-73.880326, 40.895854], [-73.880348, 40.895942], [-73.880378, 40.896042], [-73.880427, 40.896167], [-73.880482, 40.8963], [-73.880522, 40.896371], [-73.880523, 40.89637], [-73.880536, 40.896397], [-73.880541, 40.896407]]], [[[-73.890157, 40.900205], [-73.890001, 40.900271], [-73.889848, 40.900341], [-73.889697, 40.900414], [-73.88952, 40.900507], [-73.889343, 40.900599], [-73.889124, 40.90072], [-73.888909, 40.900846], [-73.888872, 40.900868], [-73.888818, 40.900901], [-73.888765, 40.900934], [-73.888732, 40.900953], [-73.888709, 40.900968], [-73.888655, 40.901001], [-73.8886, 40.901034], [-73.888551, 40.901069], [-73.888502, 40.901104], [-73.888453, 40.90114], [-73.888404, 40.901175], [-73.888355, 40.90121], [-73.888306, 40.901245], [-73.888261, 40.901279], [-73.888216, 40.901313], [-73.888172, 40.901347], [-73.888127, 40.901381], [-73.888104, 40.901399], [-73.888037, 40.901453], [-73.888054, 40.901481], [-73.888067, 40.901504], [-73.88808, 40.901526], [-73.888103, 40.901568], [-73.888107, 40.90158], [-73.888103, 40.901586], [-73.888101, 40.901594], [-73.888103, 40.901601], [-73.888136, 40.901676], [-73.888151, 40.901712], [-73.888165, 40.901749], [-73.888192, 40.901824], [-73.888215, 40.901899], [-73.888236, 40.901974], [-73.888261, 40.902089], [-73.888283, 40.902203], [-73.888291, 40.902261], [-73.8883, 40.902319], [-73.888307, 40.902371], [-73.888314, 40.902424], [-73.888321, 40.902476], [-73.88833, 40.902531], [-73.888334, 40.902534], [-73.888339, 40.902535], [-73.888345, 40.902534], [-73.888349, 40.90253], [-73.888376, 40.90248], [-73.888403, 40.902429], [-73.88843, 40.902379], [-73.888457, 40.902328], [-73.888483, 40.902277], [-73.888508, 40.902232], [-73.888533, 40.902186], [-73.888557, 40.902141], [-73.888582, 40.902095], [-73.888607, 40.90205], [-73.888631, 40.902004], [-73.888656, 40.901957], [-73.888681, 40.90191], [-73.888706, 40.901862], [-73.888731, 40.901816], [-73.888755, 40.901768], [-73.888765, 40.90175], [-73.88878, 40.901721], [-73.888808, 40.901674], [-73.888836, 40.901626], [-73.888851, 40.901602], [-73.888864, 40.901578], [-73.888893, 40.90153], [-73.88892, 40.901482], [-73.88898, 40.901381], [-73.889044, 40.901282], [-73.889112, 40.901184], [-73.889184, 40.901087], [-73.889259, 40.900993], [-73.889322, 40.900919], [-73.889388, 40.900846], [-73.889456, 40.900776], [-73.889528, 40.900707], [-73.889602, 40.900641], [-73.889679, 40.900576], [-73.889759, 40.900513], [-73.889842, 40.900452], [-73.889949, 40.900379], [-73.890021, 40.900335], [-73.890185, 40.900193], [-73.890157, 40.900205]]], [[[-73.887036, 40.884499], [-73.887031, 40.884549], [-73.887026, 40.884595], [-73.887021, 40.884642], [-73.887016, 40.884688], [-73.887012, 40.884735], [-73.887008, 40.884781], [-73.887003, 40.884859], [-73.887001, 40.884938], [-73.887002, 40.885016], [-73.887006, 40.885095], [-73.887014, 40.885174], [-73.887025, 40.885252], [-73.887039, 40.88533], [-73.887049, 40.885382], [-73.88706, 40.885434], [-73.887071, 40.885487], [-73.887082, 40.885539], [-73.887092, 40.885591], [-73.887103, 40.885644], [-73.887109, 40.885672], [-73.887114, 40.885696], [-73.887123, 40.885748], [-73.887132, 40.8858], [-73.887141, 40.885852], [-73.88715, 40.885904], [-73.887159, 40.885956], [-73.887168, 40.886007], [-73.887172, 40.886031], [-73.887177, 40.886059], [-73.887186, 40.886111], [-73.887195, 40.886163], [-73.887204, 40.886215], [-73.887213, 40.886267], [-73.887247, 40.88648], [-73.887277, 40.886693], [-73.887303, 40.886907], [-73.887324, 40.887121], [-73.88733, 40.887184], [-73.887349, 40.887454], [-73.887364, 40.887725], [-73.887373, 40.887995], [-73.887377, 40.888265], [-73.887376, 40.888461], [-73.887371, 40.888656], [-73.887362, 40.888851], [-73.887343, 40.889112], [-73.887315, 40.889372], [-73.88728, 40.889635], [-73.887286, 40.889638], [-73.887292, 40.889636], [-73.887305, 40.889601], [-73.887318, 40.889568], [-73.887332, 40.889535], [-73.887347, 40.889503], [-73.887365, 40.88947], [-73.887389, 40.889432], [-73.887403, 40.889409], [-73.887424, 40.889379], [-73.887447, 40.889349], [-73.887471, 40.88932], [-73.887496, 40.889292], [-73.887522, 40.889264], [-73.88755, 40.889237], [-73.887579, 40.889211], [-73.887594, 40.889198], [-73.887609, 40.889185], [-73.88764, 40.889161], [-73.88766, 40.889145], [-73.887681, 40.889131], [-73.887684, 40.889102], [-73.887686, 40.889075], [-73.887689, 40.889048], [-73.887709, 40.888677], [-73.88767, 40.888008], [-73.887618, 40.887674], [-73.887551, 40.887342], [-73.88754, 40.887294], [-73.88753, 40.887245], [-73.887524, 40.887216], [-73.88752, 40.887196], [-73.887509, 40.887148], [-73.887504, 40.887121], [-73.887499, 40.887099], [-73.887489, 40.887051], [-73.887479, 40.887004], [-73.887469, 40.886957], [-73.887459, 40.88691], [-73.887449, 40.886863], [-73.887438, 40.886815], [-73.887428, 40.886768], [-73.887419, 40.886722], [-73.887409, 40.886676], [-73.887399, 40.886629], [-73.887389, 40.886583], [-73.88738, 40.886537], [-73.88737, 40.886491], [-73.887364, 40.886463], [-73.887359, 40.886438], [-73.887348, 40.886386], [-73.887337, 40.886333], [-73.887326, 40.886281], [-73.887315, 40.886228], [-73.887306, 40.886182], [-73.887296, 40.886136], [-73.887286, 40.88609], [-73.887277, 40.886043], [-73.887267, 40.885997], [-73.887257, 40.885951], [-73.887248, 40.885905], [-73.887238, 40.88586], [-73.887229, 40.885814], [-73.88722, 40.885768], [-73.88721, 40.885722], [-73.887201, 40.885677], [-73.887191, 40.885631], [-73.887181, 40.885585], [-73.887172, 40.88554], [-73.887162, 40.885494], [-73.887152, 40.885449], [-73.887142, 40.8854], [-73.887132, 40.885351], [-73.887129, 40.885337], [-73.887121, 40.885302], [-73.887111, 40.885253], [-73.887104, 40.885224], [-73.887096, 40.885196], [-73.887088, 40.885167], [-73.887072, 40.885122], [-73.887063, 40.885092], [-73.887055, 40.885062], [-73.887049, 40.885032], [-73.887044, 40.885002], [-73.88704, 40.884972], [-73.887037, 40.884941], [-73.887036, 40.884911], [-73.887036, 40.88488], [-73.887037, 40.88485], [-73.887038, 40.884823], [-73.88704, 40.884795], [-73.887041, 40.884744], [-73.887043, 40.884692], [-73.887044, 40.884641], [-73.887046, 40.884595], [-73.887048, 40.88455], [-73.887049, 40.884499], [-73.887042, 40.884497], [-73.887036, 40.884499]]], [[[-73.880484, 40.896973], [-73.880434, 40.897043], [-73.880406, 40.897086], [-73.880378, 40.89713], [-73.88035, 40.897173], [-73.880322, 40.897217], [-73.880294, 40.897261], [-73.880266, 40.897304], [-73.880238, 40.897348], [-73.880212, 40.897392], [-73.880186, 40.897436], [-73.880161, 40.89748], [-73.880135, 40.897525], [-73.880109, 40.897569], [-73.880083, 40.897613], [-73.880058, 40.897657], [-73.880041, 40.897685], [-73.880026, 40.897713], [-73.880013, 40.897741], [-73.880011, 40.897745], [-73.879959, 40.898093], [-73.879959, 40.898095], [-73.879963, 40.898106], [-73.879968, 40.898117], [-73.879973, 40.898128], [-73.879979, 40.898139], [-73.879985, 40.89815], [-73.879992, 40.89816], [-73.879999, 40.898171], [-73.880007, 40.898181], [-73.880015, 40.898191], [-73.880023, 40.898201], [-73.880032, 40.89821], [-73.880042, 40.89822], [-73.880051, 40.898229], [-73.880062, 40.898237], [-73.880072, 40.898246], [-73.880083, 40.898254], [-73.880095, 40.898262], [-73.880106, 40.89827], [-73.880113, 40.898274], [-73.880118, 40.898277], [-73.880131, 40.898284], [-73.880143, 40.898291], [-73.880156, 40.898297], [-73.88017, 40.898303], [-73.880183, 40.898309], [-73.880197, 40.898314], [-73.880205, 40.898317], [-73.880211, 40.898319], [-73.880225, 40.898324], [-73.88024, 40.898328], [-73.880255, 40.898332], [-73.88027, 40.898335], [-73.880285, 40.898338], [-73.8803, 40.898341], [-73.880315, 40.898343], [-73.880331, 40.898345], [-73.880346, 40.898347], [-73.880362, 40.898348], [-73.880377, 40.898348], [-73.880393, 40.898348], [-73.880409, 40.898348], [-73.880424, 40.898348], [-73.88044, 40.898347], [-73.880455, 40.898345], [-73.880471, 40.898343], [-73.880486, 40.898341], [-73.880501, 40.898338], [-73.880516, 40.898335], [-73.880531, 40.898332], [-73.880546, 40.898328], [-73.880561, 40.898324], [-73.880575, 40.898319], [-73.880589, 40.898314], [-73.880603, 40.898309], [-73.880617, 40.898303], [-73.88063, 40.898297], [-73.880643, 40.898291], [-73.880656, 40.898284], [-73.880669, 40.898277], [-73.880681, 40.898269], [-73.880693, 40.898262], [-73.880704, 40.898253], [-73.880715, 40.898245], [-73.880719, 40.898242], [-73.880726, 40.898237], [-73.880736, 40.898228], [-73.880746, 40.898218], [-73.880756, 40.898209], [-73.88076, 40.898204], [-73.880765, 40.898199], [-73.880773, 40.898189], [-73.880781, 40.898179], [-73.880789, 40.898169], [-73.880796, 40.898158], [-73.880807, 40.898137], [-73.880816, 40.898116], [-73.880825, 40.898095], [-73.880833, 40.898073], [-73.88084, 40.898051], [-73.880846, 40.89803], [-73.880851, 40.898007], [-73.880855, 40.897985], [-73.880857, 40.897973], [-73.880858, 40.897963], [-73.88086, 40.897941], [-73.880862, 40.897918], [-73.880862, 40.897869], [-73.880861, 40.89782], [-73.880857, 40.897771], [-73.880851, 40.897722], [-73.880843, 40.897673], [-73.880833, 40.897624], [-73.880821, 40.897576], [-73.880806, 40.897528], [-73.88079, 40.897481], [-73.880771, 40.897434], [-73.88075, 40.897387], [-73.880727, 40.897341], [-73.880701, 40.897292], [-73.880676, 40.897243], [-73.88065, 40.897194], [-73.880625, 40.897145], [-73.880599, 40.897096], [-73.880573, 40.897046], [-73.880566, 40.897032], [-73.880559, 40.89702], [-73.880549, 40.897], [-73.880514, 40.896933], [-73.880484, 40.896973]]], [[[-73.879598, 40.899394], [-73.879571, 40.899553], [-73.879581, 40.899541], [-73.879606, 40.899509], [-73.879637, 40.899479], [-73.879669, 40.899445], [-73.879708, 40.899409], [-73.879749, 40.899371], [-73.879769, 40.899352], [-73.879769, 40.899354], [-73.879792, 40.899333], [-73.879861, 40.899273], [-73.879932, 40.899216], [-73.880006, 40.89916], [-73.880055, 40.899124], [-73.880102, 40.899088], [-73.88015, 40.899052], [-73.880197, 40.899017], [-73.880245, 40.898981], [-73.880288, 40.898949], [-73.880295, 40.898944], [-73.880332, 40.898917], [-73.880359, 40.898897], [-73.880375, 40.898885], [-73.880394, 40.898871], [-73.880418, 40.898853], [-73.880464, 40.898816], [-73.880508, 40.898779], [-73.88055, 40.89874], [-73.880567, 40.898723], [-73.880591, 40.8987], [-73.880613, 40.898677], [-73.880629, 40.898659], [-73.880666, 40.898617], [-73.880701, 40.898573], [-73.880734, 40.89853], [-73.880765, 40.898485], [-73.880793, 40.898439], [-73.880802, 40.898425], [-73.88082, 40.898393], [-73.880845, 40.898346], [-73.880867, 40.898299], [-73.880887, 40.89825], [-73.880905, 40.898202], [-73.880921, 40.898153], [-73.880934, 40.898103], [-73.880945, 40.898057], [-73.880925, 40.898071], [-73.880917, 40.898097], [-73.880908, 40.898125], [-73.880897, 40.898153], [-73.88089, 40.898166], [-73.880883, 40.898179], [-73.880876, 40.898192], [-73.880867, 40.898204], [-73.880858, 40.898217], [-73.880849, 40.898229], [-73.880839, 40.898241], [-73.880829, 40.898252], [-73.880818, 40.898263], [-73.880806, 40.898274], [-73.880794, 40.898285], [-73.880782, 40.898296], [-73.880769, 40.898306], [-73.880755, 40.898315], [-73.880741, 40.898325], [-73.880727, 40.898334], [-73.880713, 40.898342], [-73.880698, 40.898351], [-73.880682, 40.898358], [-73.880666, 40.898366], [-73.88065, 40.898373], [-73.880634, 40.898379], [-73.880617, 40.898386], [-73.8806, 40.898391], [-73.880583, 40.898396], [-73.880566, 40.898401], [-73.880548, 40.898406], [-73.88053, 40.89841], [-73.880512, 40.898413], [-73.880494, 40.898416], [-73.880476, 40.898418], [-73.880458, 40.89842], [-73.880439, 40.898422], [-73.880421, 40.898423], [-73.880402, 40.898423], [-73.880384, 40.898424], [-73.880365, 40.898423], [-73.880347, 40.898422], [-73.880328, 40.898421], [-73.88031, 40.898419], [-73.880292, 40.898417], [-73.880274, 40.898414], [-73.880256, 40.89841], [-73.880238, 40.898407], [-73.88022, 40.898402], [-73.880211, 40.8984], [-73.880203, 40.898398], [-73.880185, 40.898393], [-73.880168, 40.898387], [-73.880152, 40.898381], [-73.880137, 40.898375], [-73.880122, 40.898369], [-73.880116, 40.898366], [-73.880107, 40.898362], [-73.880093, 40.898355], [-73.880079, 40.898348], [-73.880066, 40.89834], [-73.880052, 40.898332], [-73.88004, 40.898324], [-73.880027, 40.898315], [-73.880015, 40.898306], [-73.880003, 40.898296], [-73.879992, 40.898287], [-73.879982, 40.898277], [-73.879971, 40.898267], [-73.879962, 40.898256], [-73.879952, 40.898246], [-73.879949, 40.898241], [-73.879933, 40.898221], [-73.879919, 40.898199], [-73.879907, 40.898176], [-73.879897, 40.898155], [-73.879889, 40.898132], [-73.879883, 40.898103], [-73.879881, 40.898079], [-73.87988, 40.898053], [-73.87988, 40.898028], [-73.879874, 40.898018], [-73.879859, 40.898013], [-73.879842, 40.898012], [-73.879822, 40.898043], [-73.879816, 40.898081], [-73.879808, 40.89813], [-73.879798, 40.898192], [-73.879786, 40.898261], [-73.879772, 40.898344], [-73.879751, 40.89847], [-73.879747, 40.898498], [-73.879701, 40.898771], [-73.879679, 40.898903], [-73.879676, 40.898922], [-73.879614, 40.899298], [-73.879598, 40.899394]]], [[[-73.895518, 40.88588], [-73.895456, 40.885882], [-73.895394, 40.885885], [-73.895366, 40.885888], [-73.895337, 40.885891], [-73.895308, 40.885894], [-73.89528, 40.885899], [-73.895259, 40.885902], [-73.895252, 40.885904], [-73.895224, 40.88591], [-73.895196, 40.885916], [-73.895169, 40.885923], [-73.895142, 40.885931], [-73.89511, 40.88594], [-73.895079, 40.885951], [-73.895048, 40.885962], [-73.895018, 40.885975], [-73.894989, 40.885988], [-73.89496, 40.886001], [-73.894947, 40.886008], [-73.894942, 40.886011], [-73.894935, 40.886014], [-73.894923, 40.886021], [-73.894911, 40.886029], [-73.8949, 40.886036], [-73.894889, 40.886044], [-73.894879, 40.886052], [-73.894869, 40.886061], [-73.894859, 40.88607], [-73.89485, 40.886079], [-73.894841, 40.886088], [-73.894836, 40.886093], [-73.894832, 40.886097], [-73.894824, 40.886107], [-73.894817, 40.886117], [-73.89481, 40.886127], [-73.894803, 40.886137], [-73.894797, 40.886148], [-73.894791, 40.886158], [-73.894786, 40.886169], [-73.894781, 40.88618], [-73.894777, 40.886191], [-73.894773, 40.886202], [-73.89477, 40.886213], [-73.894767, 40.886224], [-73.894764, 40.886236], [-73.894763, 40.886247], [-73.894761, 40.886258], [-73.89476, 40.88627], [-73.89476, 40.886281], [-73.89476, 40.886293], [-73.894761, 40.886304], [-73.894762, 40.886315], [-73.894764, 40.886327], [-73.894766, 40.886338], [-73.894768, 40.886349], [-73.894771, 40.88636], [-73.894775, 40.886371], [-73.894779, 40.886382], [-73.894783, 40.886392], [-73.894788, 40.886403], [-73.894791, 40.886407], [-73.894794, 40.886413], [-73.8948, 40.886423], [-73.894806, 40.886433], [-73.894813, 40.886443], [-73.89482, 40.886452], [-73.894828, 40.886462], [-73.894836, 40.886471], [-73.894844, 40.88648], [-73.894853, 40.886489], [-73.894863, 40.886497], [-73.894872, 40.886506], [-73.894882, 40.886514], [-73.894893, 40.886521], [-73.894903, 40.886528], [-73.894913, 40.886535], [-73.894924, 40.886541], [-73.894934, 40.886547], [-73.894945, 40.886553], [-73.894957, 40.886559], [-73.894968, 40.886564], [-73.89498, 40.886569], [-73.894992, 40.886573], [-73.895004, 40.886578], [-73.895017, 40.886582], [-73.895029, 40.886585], [-73.895042, 40.886589], [-73.895055, 40.886592], [-73.895068, 40.886594], [-73.895081, 40.886597], [-73.895094, 40.886599], [-73.895107, 40.8866], [-73.89512, 40.886602], [-73.895134, 40.886603], [-73.895145, 40.886603], [-73.895162, 40.886604], [-73.895174, 40.886604], [-73.895181, 40.886603], [-73.895188, 40.886603], [-73.895201, 40.886602], [-73.895214, 40.886601], [-73.895228, 40.8866], [-73.895241, 40.886598], [-73.895262, 40.886595], [-73.895283, 40.886591], [-73.895304, 40.886587], [-73.895324, 40.886582], [-73.895344, 40.886576], [-73.895364, 40.886571], [-73.895384, 40.886564], [-73.895403, 40.886557], [-73.895423, 40.88655], [-73.895441, 40.886542], [-73.89546, 40.886533], [-73.895478, 40.886524], [-73.895495, 40.886515], [-73.895512, 40.886505], [-73.895529, 40.886494], [-73.895787, 40.886333], [-73.8958, 40.886325], [-73.895806, 40.886321], [-73.89604, 40.886168], [-73.896174, 40.886082], [-73.896306, 40.885995], [-73.896306, 40.885995], [-73.895804, 40.885902], [-73.895739, 40.885889], [-73.895704, 40.885883], [-73.895642, 40.885881], [-73.89558, 40.88588], [-73.895518, 40.88588]]], [[[-73.887499, 40.890009], [-73.887382, 40.890084], [-73.887267, 40.89016], [-73.887235, 40.890287], [-73.887197, 40.890414], [-73.887153, 40.89054], [-73.887102, 40.890664], [-73.887061, 40.890774], [-73.886972, 40.890992], [-73.886877, 40.891209], [-73.886787, 40.891418], [-73.886695, 40.891627], [-73.8866, 40.891836], [-73.886491, 40.892065], [-73.886379, 40.892293], [-73.886262, 40.89252], [-73.886165, 40.892709], [-73.886066, 40.892897], [-73.885965, 40.893084], [-73.885941, 40.893126], [-73.885918, 40.893169], [-73.885894, 40.893212], [-73.88587, 40.893255], [-73.885846, 40.893297], [-73.885823, 40.89334], [-73.885796, 40.893389], [-73.885784, 40.893411], [-73.88577, 40.893438], [-73.885754, 40.893467], [-73.885743, 40.893487], [-73.885717, 40.893536], [-73.88569, 40.893585], [-73.885663, 40.893634], [-73.885637, 40.893683], [-73.885612, 40.893729], [-73.885587, 40.893775], [-73.885562, 40.893821], [-73.885536, 40.893868], [-73.885511, 40.893914], [-73.885491, 40.893951], [-73.885475, 40.89398], [-73.885461, 40.894006], [-73.885436, 40.894052], [-73.885413, 40.894095], [-73.885389, 40.894138], [-73.885366, 40.89418], [-73.885342, 40.894223], [-73.885319, 40.894266], [-73.885296, 40.894308], [-73.88527, 40.894356], [-73.885244, 40.894405], [-73.885219, 40.894453], [-73.885193, 40.894501], [-73.885182, 40.894522], [-73.885152, 40.894579], [-73.885142, 40.894598], [-73.885116, 40.894646], [-73.885093, 40.894692], [-73.884978, 40.894933], [-73.884871, 40.895176], [-73.884772, 40.895421], [-73.884681, 40.895668], [-73.884622, 40.895847], [-73.884571, 40.896028], [-73.884528, 40.89621], [-73.884514, 40.89628], [-73.884505, 40.896329], [-73.884493, 40.896394], [-73.884466, 40.896578], [-73.884448, 40.896762], [-73.884438, 40.896947], [-73.884438, 40.89702], [-73.884437, 40.897093], [-73.884439, 40.897167], [-73.884442, 40.897238], [-73.884452, 40.897383], [-73.884469, 40.897528], [-73.884476, 40.897573], [-73.884535, 40.897557], [-73.884528, 40.89751], [-73.884513, 40.897376], [-73.884502, 40.897241], [-73.884497, 40.897107], [-73.884498, 40.896972], [-73.884504, 40.896838], [-73.884515, 40.896703], [-73.884538, 40.896519], [-73.88455, 40.896447], [-73.884568, 40.896336], [-73.884606, 40.896153], [-73.884652, 40.895972], [-73.884705, 40.895792], [-73.884766, 40.895613], [-73.884783, 40.895567], [-73.884798, 40.895529], [-73.884842, 40.895412], [-73.884865, 40.895352], [-73.884973, 40.895093], [-73.885091, 40.894836], [-73.885218, 40.894582], [-73.885242, 40.894535], [-73.885269, 40.894488], [-73.885295, 40.89444], [-73.885321, 40.894392], [-73.885347, 40.894344], [-73.885373, 40.894296], [-73.885399, 40.894249], [-73.885425, 40.894201], [-73.885451, 40.894153], [-73.885477, 40.894105], [-73.885503, 40.894057], [-73.885529, 40.89401], [-73.885545, 40.893981], [-73.885556, 40.893962], [-73.885582, 40.893914], [-73.885596, 40.893887], [-73.885608, 40.893865], [-73.885634, 40.893816], [-73.885661, 40.893767], [-73.885687, 40.893719], [-73.885693, 40.893709], [-73.885714, 40.89367], [-73.88574, 40.893621], [-73.885766, 40.893572], [-73.885793, 40.893523], [-73.88582, 40.893473], [-73.885846, 40.893426], [-73.885867, 40.893386], [-73.885873, 40.893375], [-73.885901, 40.893324], [-73.885929, 40.893274], [-73.885957, 40.893223], [-73.885984, 40.893173], [-73.886012, 40.893122], [-73.88604, 40.893071], [-73.886068, 40.893021], [-73.886095, 40.89297], [-73.886121, 40.892923], [-73.886146, 40.892876], [-73.886172, 40.892829], [-73.886197, 40.892782], [-73.886223, 40.892735], [-73.886248, 40.892688], [-73.886274, 40.892641], [-73.886299, 40.892594], [-73.886325, 40.892547], [-73.886335, 40.892528], [-73.88635, 40.8925], [-73.886376, 40.892453], [-73.886401, 40.892407], [-73.886427, 40.89236], [-73.886452, 40.892314], [-73.886478, 40.892267], [-73.886503, 40.89222], [-73.886529, 40.892174], [-73.88654, 40.892154], [-73.886554, 40.892127], [-73.88658, 40.892079], [-73.886606, 40.892031], [-73.886631, 40.891983], [-73.886657, 40.891935], [-73.886683, 40.891887], [-73.886709, 40.891839], [-73.886734, 40.891791], [-73.88676, 40.891743], [-73.886786, 40.891694], [-73.886812, 40.891645], [-73.886837, 40.891596], [-73.886863, 40.891547], [-73.886889, 40.891498], [-73.886915, 40.891449], [-73.886941, 40.8914], [-73.886967, 40.89135], [-73.886993, 40.891301], [-73.887112, 40.891061], [-73.887221, 40.890818], [-73.887319, 40.890573], [-73.887405, 40.890325], [-73.887413, 40.890302], [-73.887422, 40.890271], [-73.887499, 40.890009]]], [[[-73.888052, 40.889696], [-73.888051, 40.889697], [-73.888051, 40.889695], [-73.887898, 40.889777], [-73.887747, 40.889862], [-73.887599, 40.889949], [-73.887529, 40.890204], [-73.887529, 40.890204], [-73.887525, 40.890217], [-73.887498, 40.89031], [-73.88749, 40.890337], [-73.887411, 40.890553], [-73.88733, 40.890768], [-73.887248, 40.890985], [-73.887249, 40.89099], [-73.887256, 40.890994], [-73.887262, 40.890993], [-73.887267, 40.890991], [-73.887324, 40.890915], [-73.887345, 40.890887], [-73.887425, 40.890786], [-73.887462, 40.89074], [-73.8875, 40.890695], [-73.887537, 40.89065], [-73.887575, 40.890605], [-73.887612, 40.89056], [-73.88765, 40.890517], [-73.887688, 40.890473], [-73.887726, 40.89043], [-73.887764, 40.890387], [-73.887775, 40.890374], [-73.887788, 40.890359], [-73.887802, 40.890343], [-73.887839, 40.890301], [-73.88792, 40.890215], [-73.887965, 40.89017], [-73.888007, 40.890128], [-73.88805, 40.890084], [-73.888092, 40.89004], [-73.888135, 40.889996], [-73.888177, 40.889952], [-73.888219, 40.889908], [-73.888261, 40.88987], [-73.888302, 40.889833], [-73.888343, 40.889796], [-73.888384, 40.889759], [-73.888425, 40.889721], [-73.888493, 40.889664], [-73.888563, 40.889608], [-73.888635, 40.889554], [-73.888709, 40.889501], [-73.888786, 40.88945], [-73.888846, 40.889412], [-73.888908, 40.889375], [-73.88897, 40.889339], [-73.88904, 40.889301], [-73.889095, 40.889273], [-73.889072, 40.889256], [-73.888728, 40.889397], [-73.888388, 40.889543], [-73.888051, 40.889694], [-73.888051, 40.889695], [-73.888052, 40.889696]]], [[[-73.894336, 40.886788], [-73.894314, 40.886958], [-73.894301, 40.887129], [-73.894298, 40.8873], [-73.894357, 40.887271], [-73.894401, 40.887249], [-73.894518, 40.887186], [-73.894625, 40.887128], [-73.894827, 40.887012], [-73.895026, 40.886894], [-73.895225, 40.886767], [-73.895425, 40.886641], [-73.895595, 40.886525], [-73.89576, 40.886406], [-73.895726, 40.886427], [-73.895704, 40.88644], [-73.895678, 40.886456], [-73.895647, 40.886474], [-73.8956, 40.886503], [-73.895553, 40.886532], [-73.895525, 40.886548], [-73.895497, 40.886564], [-73.895469, 40.886579], [-73.895439, 40.886593], [-73.89541, 40.886607], [-73.895394, 40.886614], [-73.895379, 40.88662], [-73.89537, 40.886625], [-73.89536, 40.886629], [-73.89535, 40.886633], [-73.89534, 40.886637], [-73.895329, 40.886641], [-73.895319, 40.886644], [-73.895308, 40.886647], [-73.895297, 40.88665], [-73.895286, 40.886653], [-73.895275, 40.886655], [-73.895264, 40.886657], [-73.895253, 40.886659], [-73.895244, 40.88666], [-73.89522, 40.886661], [-73.8952, 40.886662], [-73.89516, 40.886664], [-73.895144, 40.886665], [-73.89513, 40.886666], [-73.895116, 40.886666], [-73.895102, 40.886666], [-73.895088, 40.886665], [-73.895074, 40.886664], [-73.895061, 40.886663], [-73.895047, 40.886661], [-73.895033, 40.886659], [-73.89502, 40.886657], [-73.895006, 40.886654], [-73.894993, 40.886651], [-73.89498, 40.886648], [-73.894967, 40.886644], [-73.894954, 40.88664], [-73.894941, 40.886635], [-73.894929, 40.886631], [-73.894917, 40.886626], [-73.894905, 40.88662], [-73.894893, 40.886615], [-73.894881, 40.886609], [-73.89487, 40.886602], [-73.894859, 40.886596], [-73.894849, 40.886589], [-73.894815, 40.886566], [-73.894781, 40.886544], [-73.894755, 40.886524], [-73.894729, 40.886504], [-73.894723, 40.886499], [-73.894705, 40.886484], [-73.894681, 40.886462], [-73.894666, 40.886448], [-73.89465, 40.886432], [-73.894638, 40.886418], [-73.894625, 40.886403], [-73.894612, 40.886387], [-73.894601, 40.886371], [-73.89459, 40.886355], [-73.89458, 40.886339], [-73.89457, 40.886322], [-73.894562, 40.886305], [-73.894554, 40.886288], [-73.894546, 40.88627], [-73.89454, 40.886252], [-73.894537, 40.886244], [-73.894535, 40.886235], [-73.89453, 40.886217], [-73.894526, 40.886199], [-73.894523, 40.886181], [-73.89452, 40.886163], [-73.894519, 40.886144], [-73.894517, 40.886119], [-73.894458, 40.886284], [-73.894408, 40.886451], [-73.894367, 40.886619], [-73.894336, 40.886788]]], [[[-73.87996, 40.895853], [-73.879871, 40.89643], [-73.879664, 40.897669], [-73.880139, 40.8969], [-73.880194, 40.896809], [-73.880237, 40.896742], [-73.880312, 40.896631], [-73.880272, 40.896539], [-73.879995, 40.895695], [-73.87996, 40.895853]]], [[[-73.88772, 40.901026], [-73.887792, 40.901105], [-73.887805, 40.901119], [-73.887886, 40.901215], [-73.887916, 40.90126], [-73.887929, 40.90128], [-73.887945, 40.901268], [-73.887984, 40.901237], [-73.887988, 40.901234], [-73.888032, 40.901199], [-73.888049, 40.901185], [-73.888076, 40.901164], [-73.88812, 40.90113], [-73.888164, 40.901095], [-73.888207, 40.901061], [-73.888259, 40.901025], [-73.88831, 40.900989], [-73.888361, 40.900953], [-73.888413, 40.900917], [-73.888443, 40.900896], [-73.888464, 40.900881], [-73.888521, 40.900846], [-73.888575, 40.900812], [-73.888631, 40.900777], [-73.888687, 40.900743], [-73.888742, 40.900708], [-73.888767, 40.900693], [-73.888798, 40.900674], [-73.888854, 40.900639], [-73.888905, 40.900608], [-73.888957, 40.900576], [-73.889009, 40.900545], [-73.889061, 40.900513], [-73.889112, 40.900481], [-73.889164, 40.90045], [-73.889217, 40.900417], [-73.889215, 40.900413], [-73.88915, 40.90043], [-73.88909, 40.900447], [-73.889029, 40.900465], [-73.888963, 40.900487], [-73.888898, 40.90051], [-73.888832, 40.900532], [-73.888767, 40.900555], [-73.888715, 40.900573], [-73.888663, 40.90059], [-73.88861, 40.900606], [-73.888556, 40.90062], [-73.888501, 40.900633], [-73.888446, 40.900645], [-73.888391, 40.900655], [-73.888334, 40.900665], [-73.888276, 40.900673], [-73.888219, 40.90068], [-73.888161, 40.900685], [-73.888103, 40.900689], [-73.888044, 40.900692], [-73.888001, 40.900693], [-73.887986, 40.900693], [-73.887927, 40.900693], [-73.887869, 40.900692], [-73.887809, 40.900688], [-73.887696, 40.901], [-73.88772, 40.901026]]], [[[-73.896244, 40.900895], [-73.896257, 40.900905], [-73.896264, 40.900909], [-73.896271, 40.900914], [-73.896285, 40.900923], [-73.8963, 40.900932], [-73.896307, 40.900935], [-73.896315, 40.90094], [-73.896323, 40.900944], [-73.89633, 40.900948], [-73.896346, 40.900955], [-73.896361, 40.900962], [-73.896376, 40.900968], [-73.896394, 40.900975], [-73.896396, 40.900975], [-73.896408, 40.900979], [-73.896424, 40.900984], [-73.89644, 40.900989], [-73.896457, 40.900993], [-73.896473, 40.900997], [-73.89649, 40.901001], [-73.896507, 40.901004], [-73.896525, 40.901006], [-73.896549, 40.90101], [-73.896668, 40.901027], [-73.896707, 40.90085], [-73.896673, 40.900863], [-73.89664, 40.90087], [-73.896605, 40.900874], [-73.896605, 40.900873], [-73.896594, 40.900874], [-73.896582, 40.900875], [-73.89657, 40.900875], [-73.896556, 40.900876], [-73.896542, 40.900876], [-73.896528, 40.900875], [-73.896514, 40.900875], [-73.896502, 40.900874], [-73.896497, 40.900873], [-73.896486, 40.900872], [-73.896472, 40.900871], [-73.896458, 40.900868], [-73.896445, 40.900866], [-73.896431, 40.900863], [-73.896425, 40.900862], [-73.896418, 40.90086], [-73.896405, 40.900857], [-73.896392, 40.900853], [-73.89638, 40.900849], [-73.896373, 40.900847], [-73.896367, 40.900844], [-73.896358, 40.900841], [-73.896349, 40.900837], [-73.896342, 40.900835], [-73.896336, 40.900832], [-73.896325, 40.900827], [-73.896306, 40.900817], [-73.896287, 40.900806], [-73.896268, 40.900795], [-73.89625, 40.900783], [-73.896233, 40.900771], [-73.896216, 40.900759], [-73.8962, 40.900746], [-73.896184, 40.900732], [-73.896169, 40.900719], [-73.896154, 40.900704], [-73.89614, 40.90069], [-73.896127, 40.900675], [-73.896114, 40.90066], [-73.896102, 40.900644], [-73.896091, 40.900629], [-73.896085, 40.90062], [-73.896078, 40.900611], [-73.896073, 40.900604], [-73.896065, 40.900591], [-73.896057, 40.900578], [-73.89605, 40.900565], [-73.896044, 40.900552], [-73.896038, 40.900539], [-73.896033, 40.900525], [-73.896028, 40.900511], [-73.896024, 40.900498], [-73.896021, 40.900484], [-73.896019, 40.900475], [-73.896018, 40.900466], [-73.896017, 40.900458], [-73.896016, 40.900449], [-73.896016, 40.90044], [-73.896016, 40.900431], [-73.896017, 40.900423], [-73.896018, 40.900414], [-73.896019, 40.900405], [-73.896021, 40.900396], [-73.896023, 40.900388], [-73.896026, 40.900379], [-73.896029, 40.900371], [-73.896032, 40.900362], [-73.896036, 40.900354], [-73.89604, 40.900346], [-73.896044, 40.900338], [-73.896047, 40.900333], [-73.896049, 40.900327], [-73.896072, 40.900293], [-73.896102, 40.900262], [-73.896139, 40.900235], [-73.89618, 40.900214], [-73.896226, 40.900198], [-73.896231, 40.900147], [-73.895489, 40.899951], [-73.895317, 40.899912], [-73.895141, 40.899889], [-73.895138, 40.899897], [-73.895134, 40.899904], [-73.895128, 40.899911], [-73.895301, 40.900004], [-73.895452, 40.900116], [-73.895477, 40.900135], [-73.89551, 40.900159], [-73.895541, 40.900185], [-73.895549, 40.900192], [-73.895573, 40.900213], [-73.8956, 40.900239], [-73.895698, 40.900327], [-73.895721, 40.900349], [-73.895759, 40.900385], [-73.895794, 40.900418], [-73.895887, 40.90051], [-73.895985, 40.900613], [-73.896079, 40.900718], [-73.896163, 40.900816], [-73.896182, 40.900839], [-73.896186, 40.900843], [-73.896195, 40.900853], [-73.896207, 40.900864], [-73.896219, 40.900874], [-73.896231, 40.900885], [-73.896244, 40.900895]]], [[[-73.894243, 40.886544], [-73.894197, 40.886636], [-73.894146, 40.88672], [-73.894093, 40.886802], [-73.894037, 40.886884], [-73.894005, 40.886934], [-73.89397, 40.886984], [-73.893934, 40.887032], [-73.893895, 40.88708], [-73.893855, 40.887127], [-73.893817, 40.887168], [-73.893733, 40.887264], [-73.893645, 40.887357], [-73.893554, 40.887449], [-73.893498, 40.887501], [-73.893439, 40.887552], [-73.893378, 40.887602], [-73.893315, 40.88765], [-73.89325, 40.887697], [-73.893209, 40.887724], [-73.893183, 40.887742], [-73.893136, 40.887772], [-73.893087, 40.887802], [-73.893037, 40.88783], [-73.892985, 40.887858], [-73.892933, 40.887883], [-73.892879, 40.887908], [-73.892732, 40.887968], [-73.892587, 40.888031], [-73.892844, 40.887939], [-73.893098, 40.887841], [-73.89311, 40.887837], [-73.893149, 40.887821], [-73.8933, 40.887761], [-73.893499, 40.887677], [-73.893797, 40.887543], [-73.894092, 40.887405], [-73.894149, 40.887377], [-73.894151, 40.887338], [-73.894152, 40.887326], [-73.894154, 40.887285], [-73.894168, 40.887127], [-73.894184, 40.886981], [-73.894191, 40.886917], [-73.894201, 40.886835], [-73.894222, 40.886731], [-73.89425, 40.886597], [-73.894256, 40.88657], [-73.894262, 40.886548], [-73.894268, 40.886524], [-73.894274, 40.886499], [-73.894286, 40.886451], [-73.894243, 40.886544]]], [[[-73.89687, 40.900129], [-73.896876, 40.900091], [-73.896878, 40.900092], [-73.896915, 40.899926], [-73.896922, 40.899885], [-73.896926, 40.899855], [-73.896932, 40.899813], [-73.89694, 40.899757], [-73.896949, 40.899692], [-73.896948, 40.899692], [-73.896954, 40.899655], [-73.896946, 40.899636], [-73.896926, 40.899612], [-73.89691, 40.899594], [-73.896893, 40.899579], [-73.896868, 40.899564], [-73.896856, 40.899557], [-73.896847, 40.899552], [-73.896837, 40.899546], [-73.896827, 40.899541], [-73.896816, 40.899536], [-73.896805, 40.899531], [-73.896794, 40.899526], [-73.896783, 40.899522], [-73.896778, 40.89952], [-73.896772, 40.899518], [-73.896761, 40.899515], [-73.896749, 40.899512], [-73.896735, 40.899508], [-73.896733, 40.899508], [-73.896725, 40.899506], [-73.896713, 40.899504], [-73.896701, 40.899501], [-73.896689, 40.8995], [-73.896678, 40.899499], [-73.896667, 40.899498], [-73.896656, 40.899497], [-73.896644, 40.899497], [-73.896633, 40.899496], [-73.896622, 40.899497], [-73.896611, 40.899497], [-73.8966, 40.899498], [-73.896589, 40.899499], [-73.896578, 40.8995], [-73.896567, 40.899502], [-73.896556, 40.899504], [-73.896545, 40.899506], [-73.896535, 40.899508], [-73.896524, 40.899511], [-73.896514, 40.899514], [-73.896503, 40.899518], [-73.896493, 40.899521], [-73.896474, 40.899527], [-73.896455, 40.899534], [-73.896436, 40.899541], [-73.896418, 40.899548], [-73.8964, 40.899556], [-73.896382, 40.899564], [-73.896365, 40.899573], [-73.896348, 40.899582], [-73.896331, 40.899592], [-73.896323, 40.899597], [-73.896316, 40.899602], [-73.896308, 40.899608], [-73.896301, 40.899613], [-73.896294, 40.899619], [-73.896287, 40.899625], [-73.89628, 40.899631], [-73.896274, 40.899637], [-73.896268, 40.899643], [-73.896262, 40.899651], [-73.896257, 40.899656], [-73.896252, 40.899663], [-73.896248, 40.89967], [-73.896243, 40.899677], [-73.896239, 40.899684], [-73.896235, 40.899692], [-73.896232, 40.899699], [-73.89623, 40.899706], [-73.896228, 40.899714], [-73.896226, 40.899721], [-73.896224, 40.899729], [-73.896224, 40.899735], [-73.896223, 40.899743], [-73.896222, 40.899751], [-73.896222, 40.899758], [-73.896223, 40.899766], [-73.896223, 40.899773], [-73.896225, 40.899781], [-73.896226, 40.899788], [-73.896228, 40.899796], [-73.89623, 40.899803], [-73.896232, 40.89981], [-73.896235, 40.899817], [-73.896238, 40.899825], [-73.896241, 40.899832], [-73.896245, 40.899839], [-73.896249, 40.899845], [-73.896253, 40.899852], [-73.896257, 40.899859], [-73.896262, 40.899865], [-73.896267, 40.899872], [-73.896273, 40.899878], [-73.896279, 40.899884], [-73.896304, 40.899902], [-73.89633, 40.899919], [-73.896357, 40.899935], [-73.896385, 40.89995], [-73.896413, 40.899965], [-73.896442, 40.899979], [-73.896471, 40.899993], [-73.896501, 40.900005], [-73.896532, 40.900017], [-73.896593, 40.900038], [-73.896633, 40.900052], [-73.896642, 40.900055], [-73.896655, 40.900059], [-73.896716, 40.900081], [-73.896778, 40.900102], [-73.89687, 40.900129]]], [[[-73.896503, 40.900814], [-73.896514, 40.900815], [-73.896525, 40.900815], [-73.896535, 40.900816], [-73.896546, 40.900816], [-73.896557, 40.900815], [-73.89657, 40.900815], [-73.896578, 40.900814], [-73.896589, 40.900813], [-73.896596, 40.900812], [-73.896596, 40.900813], [-73.896621, 40.900808], [-73.896622, 40.900807], [-73.896649, 40.900802], [-73.896688, 40.900788], [-73.896711, 40.900781], [-73.896725, 40.900772], [-73.896826, 40.900322], [-73.896828, 40.900313], [-73.89679, 40.900302], [-73.896764, 40.900294], [-73.896732, 40.900286], [-73.896684, 40.900276], [-73.896646, 40.900268], [-73.896622, 40.900264], [-73.896595, 40.900259], [-73.896592, 40.900258], [-73.896558, 40.900252], [-73.896526, 40.900247], [-73.896493, 40.900243], [-73.89646, 40.90024], [-73.896427, 40.900237], [-73.896394, 40.900236], [-73.896386, 40.900235], [-73.896376, 40.900235], [-73.89637, 40.900234], [-73.896362, 40.900234], [-73.896354, 40.900235], [-73.896346, 40.900235], [-73.896338, 40.900236], [-73.89633, 40.900237], [-73.896322, 40.900238], [-73.896314, 40.900239], [-73.896306, 40.90024], [-73.896298, 40.900242], [-73.89629, 40.900244], [-73.896282, 40.900246], [-73.896275, 40.900248], [-73.896267, 40.90025], [-73.89626, 40.900253], [-73.896253, 40.900256], [-73.896244, 40.900259], [-73.896236, 40.900262], [-73.896227, 40.900267], [-73.896219, 40.900271], [-73.896211, 40.900275], [-73.896204, 40.900279], [-73.896197, 40.900283], [-73.896193, 40.900286], [-73.896189, 40.900289], [-73.896183, 40.900293], [-73.896175, 40.900299], [-73.896168, 40.900304], [-73.896162, 40.90031], [-73.896155, 40.900316], [-73.896149, 40.900322], [-73.896144, 40.900328], [-73.896138, 40.900334], [-73.896133, 40.90034], [-73.896128, 40.900346], [-73.896124, 40.900353], [-73.89612, 40.90036], [-73.896116, 40.900366], [-73.896112, 40.900373], [-73.89611, 40.900379], [-73.896106, 40.900388], [-73.896104, 40.900396], [-73.896102, 40.900403], [-73.8961, 40.900411], [-73.896099, 40.900417], [-73.896098, 40.900427], [-73.896097, 40.900435], [-73.896097, 40.900443], [-73.896097, 40.900451], [-73.896097, 40.900459], [-73.896098, 40.900467], [-73.8961, 40.900475], [-73.896101, 40.900483], [-73.896103, 40.90049], [-73.896105, 40.900498], [-73.896108, 40.900506], [-73.896111, 40.900514], [-73.896114, 40.900521], [-73.896139, 40.900561], [-73.896163, 40.900601], [-73.896169, 40.900611], [-73.896176, 40.900622], [-73.896184, 40.900632], [-73.896191, 40.900642], [-73.8962, 40.900651], [-73.896208, 40.900661], [-73.896217, 40.90067], [-73.896226, 40.900679], [-73.896236, 40.900688], [-73.896246, 40.900697], [-73.896255, 40.900706], [-73.896265, 40.900715], [-73.896276, 40.900723], [-73.896287, 40.900731], [-73.896298, 40.900739], [-73.896309, 40.900746], [-73.896321, 40.900753], [-73.896333, 40.90076], [-73.896346, 40.900767], [-73.896358, 40.900773], [-73.896371, 40.900779], [-73.896385, 40.900784], [-73.896398, 40.90079], [-73.896412, 40.900794], [-73.896426, 40.900799], [-73.89644, 40.900803], [-73.89644, 40.900803], [-73.89645, 40.900805], [-73.896461, 40.900808], [-73.896471, 40.90081], [-73.896482, 40.900811], [-73.896492, 40.900813], [-73.896503, 40.900814]]], [[[-73.889071, 40.888923], [-73.889012, 40.888925], [-73.888953, 40.888926], [-73.888894, 40.888928], [-73.888835, 40.888929], [-73.888786, 40.888931], [-73.88877, 40.888931], [-73.888705, 40.888934], [-73.888673, 40.888935], [-73.88864, 40.888936], [-73.888576, 40.888939], [-73.888511, 40.888941], [-73.888446, 40.888943], [-73.888407, 40.888946], [-73.888368, 40.88895], [-73.888329, 40.888955], [-73.888296, 40.888959], [-73.88829, 40.88896], [-73.888252, 40.888967], [-73.888214, 40.888975], [-73.888177, 40.888984], [-73.88814, 40.888993], [-73.888123, 40.888998], [-73.888103, 40.889004], [-73.888067, 40.889016], [-73.888031, 40.889028], [-73.887996, 40.889042], [-73.887962, 40.889056], [-73.887928, 40.889071], [-73.887895, 40.889087], [-73.887867, 40.889102], [-73.887839, 40.889117], [-73.887811, 40.889133], [-73.887785, 40.88915], [-73.887759, 40.889167], [-73.887757, 40.88918], [-73.887745, 40.889268], [-73.887723, 40.889403], [-73.887713, 40.889456], [-73.887713, 40.889456], [-73.887704, 40.889509], [-73.887895, 40.889413], [-73.88809, 40.889321], [-73.88829, 40.889234], [-73.888493, 40.889153], [-73.888699, 40.889076], [-73.888721, 40.889067], [-73.888753, 40.889057], [-73.888952, 40.888991], [-73.889153, 40.888929], [-73.889147, 40.888923], [-73.889107, 40.888923], [-73.889071, 40.888923]]], [[[-73.896103, 40.899891], [-73.896105, 40.899886], [-73.896108, 40.899882], [-73.896112, 40.899878], [-73.896116, 40.899875], [-73.896121, 40.899873], [-73.896129, 40.89987], [-73.896139, 40.899869], [-73.896145, 40.899869], [-73.896133, 40.89982], [-73.896132, 40.899771], [-73.896133, 40.899764], [-73.896141, 40.899723], [-73.89616, 40.899676], [-73.896164, 40.899667], [-73.896167, 40.899661], [-73.896172, 40.899652], [-73.896178, 40.899644], [-73.896183, 40.899636], [-73.896189, 40.899628], [-73.896196, 40.89962], [-73.896203, 40.899612], [-73.89621, 40.899604], [-73.896217, 40.899597], [-73.896221, 40.899594], [-73.896225, 40.89959], [-73.896234, 40.899582], [-73.896242, 40.899576], [-73.896251, 40.89957], [-73.896265, 40.899559], [-73.89628, 40.899549], [-73.896295, 40.899539], [-73.896311, 40.899529], [-73.896327, 40.89952], [-73.896344, 40.899512], [-73.896352, 40.899507], [-73.896361, 40.899503], [-73.896378, 40.899495], [-73.896394, 40.899488], [-73.896432, 40.899474], [-73.89645, 40.899469], [-73.896469, 40.899463], [-73.896476, 40.899461], [-73.896488, 40.899458], [-73.896499, 40.899455], [-73.896507, 40.899453], [-73.896526, 40.899449], [-73.896539, 40.899446], [-73.896553, 40.899444], [-73.896566, 40.899442], [-73.896579, 40.89944], [-73.896595, 40.899438], [-73.896606, 40.899438], [-73.89662, 40.899437], [-73.896634, 40.899437], [-73.896647, 40.899437], [-73.896661, 40.899437], [-73.896674, 40.899438], [-73.896688, 40.899439], [-73.896702, 40.89944], [-73.896715, 40.899442], [-73.896728, 40.899444], [-73.896739, 40.899446], [-73.89674, 40.899446], [-73.896755, 40.899449], [-73.896768, 40.899452], [-73.89678, 40.899456], [-73.896793, 40.89946], [-73.896806, 40.899464], [-73.896818, 40.899468], [-73.896824, 40.899471], [-73.89683, 40.899473], [-73.896835, 40.899475], [-73.896841, 40.899477], [-73.896858, 40.899485], [-73.896867, 40.89949], [-73.896875, 40.899494], [-73.896885, 40.899499], [-73.896885, 40.899499], [-73.8969, 40.899507], [-73.896928, 40.899523], [-73.896949, 40.899538], [-73.896968, 40.899557], [-73.89698, 40.899474], [-73.896986, 40.899407], [-73.896868, 40.899399], [-73.896868, 40.899401], [-73.896857, 40.8994], [-73.896789, 40.899397], [-73.896744, 40.899395], [-73.896721, 40.899394], [-73.896653, 40.899391], [-73.896639, 40.899391], [-73.896624, 40.89939], [-73.89661, 40.89939], [-73.896595, 40.899391], [-73.89658, 40.899391], [-73.896566, 40.899393], [-73.896551, 40.899394], [-73.896537, 40.899396], [-73.896523, 40.899398], [-73.896508, 40.899401], [-73.896494, 40.899404], [-73.89648, 40.899407], [-73.896467, 40.899411], [-73.896453, 40.899415], [-73.89644, 40.899419], [-73.896426, 40.899424], [-73.896413, 40.899429], [-73.896401, 40.899434], [-73.896388, 40.89944], [-73.896333, 40.899464], [-73.896278, 40.899487], [-73.896268, 40.899491], [-73.896196, 40.899519], [-73.896164, 40.89953], [-73.896106, 40.89955], [-73.89605, 40.899568], [-73.895993, 40.899584], [-73.895936, 40.899599], [-73.895878, 40.899612], [-73.89582, 40.899624], [-73.895761, 40.899634], [-73.895701, 40.899643], [-73.895642, 40.899651], [-73.895626, 40.899652], [-73.895591, 40.899656], [-73.895582, 40.899656], [-73.895543, 40.89966], [-73.895503, 40.899663], [-73.895464, 40.899664], [-73.895425, 40.899665], [-73.895386, 40.899665], [-73.895347, 40.899664], [-73.895307, 40.899662], [-73.895268, 40.899658], [-73.895228, 40.899654], [-73.895213, 40.899663], [-73.8952, 40.899672], [-73.896102, 40.899895], [-73.896103, 40.899891]]], [[[-73.894682, 40.885691], [-73.894675, 40.885696], [-73.894671, 40.885701], [-73.894667, 40.885705], [-73.894664, 40.885709], [-73.894661, 40.885713], [-73.894658, 40.88572], [-73.894643, 40.885756], [-73.894625, 40.885801], [-73.894606, 40.885847], [-73.894598, 40.885869], [-73.89459, 40.885891], [-73.894584, 40.885913], [-73.894578, 40.885936], [-73.894574, 40.885958], [-73.894571, 40.885981], [-73.894568, 40.886004], [-73.894567, 40.886027], [-73.894567, 40.886049], [-73.894568, 40.886072], [-73.894569, 40.886091], [-73.894572, 40.88611], [-73.894575, 40.886129], [-73.894579, 40.886148], [-73.894584, 40.886167], [-73.894588, 40.88618], [-73.894589, 40.886185], [-73.894596, 40.886204], [-73.894603, 40.886222], [-73.894611, 40.88624], [-73.894619, 40.886258], [-73.894632, 40.886278], [-73.894639, 40.886279], [-73.894645, 40.886276], [-73.894648, 40.886259], [-73.894649, 40.886252], [-73.894667, 40.886187], [-73.894674, 40.886171], [-73.894681, 40.886157], [-73.894688, 40.886143], [-73.894696, 40.886129], [-73.894705, 40.886115], [-73.894714, 40.886102], [-73.894724, 40.886089], [-73.894735, 40.886076], [-73.894746, 40.886064], [-73.89476, 40.886049], [-73.894774, 40.886035], [-73.894789, 40.886021], [-73.894805, 40.886008], [-73.894821, 40.885995], [-73.894838, 40.885983], [-73.894856, 40.885971], [-73.894874, 40.885959], [-73.894892, 40.885948], [-73.894911, 40.885938], [-73.894931, 40.885928], [-73.89495, 40.885918], [-73.894971, 40.885909], [-73.894992, 40.8859], [-73.894999, 40.885898], [-73.895013, 40.885893], [-73.895034, 40.885885], [-73.895056, 40.885878], [-73.895078, 40.885872], [-73.895127, 40.885859], [-73.895177, 40.885848], [-73.895227, 40.885838], [-73.895278, 40.885829], [-73.895329, 40.885822], [-73.895359, 40.885818], [-73.894683, 40.88569], [-73.894682, 40.885691]]], [[[-73.896993, 40.899231], [-73.896993, 40.899172], [-73.896986, 40.899088], [-73.896981, 40.89901], [-73.896972, 40.898903], [-73.896958, 40.89892], [-73.896945, 40.898939], [-73.89693, 40.898964], [-73.89691, 40.898998], [-73.896875, 40.899051], [-73.896851, 40.899083], [-73.896835, 40.899104], [-73.896827, 40.899115], [-73.896804, 40.899143], [-73.896776, 40.899172], [-73.896752, 40.899194], [-73.896746, 40.899199], [-73.896737, 40.899208], [-73.896728, 40.899217], [-73.896718, 40.899225], [-73.896708, 40.899233], [-73.896698, 40.899241], [-73.896687, 40.899249], [-73.896676, 40.899256], [-73.896664, 40.899263], [-73.896653, 40.89927], [-73.896641, 40.899276], [-73.896615, 40.899289], [-73.8966, 40.899297], [-73.896622, 40.899344], [-73.89663, 40.899343], [-73.89665, 40.899342], [-73.896671, 40.899341], [-73.896693, 40.899341], [-73.896741, 40.899343], [-73.896748, 40.899343], [-73.89679, 40.899345], [-73.896831, 40.899346], [-73.896831, 40.899346], [-73.896843, 40.899347], [-73.896897, 40.899349], [-73.896897, 40.899349], [-73.896988, 40.899352], [-73.896993, 40.899231]]], [[[-73.896535, 40.901393], [-73.896557, 40.901447], [-73.896569, 40.90148], [-73.896657, 40.901075], [-73.896567, 40.901061], [-73.896467, 40.90105], [-73.896412, 40.901042], [-73.896413, 40.901044], [-73.896395, 40.901041], [-73.896388, 40.901042], [-73.896381, 40.901044], [-73.896378, 40.901046], [-73.896375, 40.901048], [-73.896371, 40.90105], [-73.896367, 40.901054], [-73.896365, 40.901059], [-73.896364, 40.901063], [-73.896364, 40.901069], [-73.89637, 40.901079], [-73.896397, 40.901121], [-73.896429, 40.901173], [-73.896457, 40.901225], [-73.896472, 40.901253], [-73.896485, 40.901277], [-73.896498, 40.901306], [-73.896498, 40.901303], [-73.896518, 40.901348], [-73.896535, 40.901393]]], [[[-73.887647, 40.889252], [-73.887627, 40.88927], [-73.887599, 40.889298], [-73.887573, 40.889326], [-73.887548, 40.889355], [-73.887524, 40.889384], [-73.887501, 40.889414], [-73.88748, 40.889445], [-73.88746, 40.889476], [-73.887442, 40.889508], [-73.887425, 40.88954], [-73.887409, 40.889573], [-73.887395, 40.889606], [-73.887383, 40.889639], [-73.887371, 40.889672], [-73.887364, 40.889699], [-73.887486, 40.889628], [-73.88761, 40.889559], [-73.887623, 40.889496], [-73.887623, 40.889493], [-73.887624, 40.889491], [-73.887638, 40.889423], [-73.887665, 40.889252], [-73.887668, 40.889234], [-73.887647, 40.889252]]], [[[-73.899279, 40.88667], [-73.899323, 40.886742], [-73.899358, 40.886816], [-73.899385, 40.886891], [-73.899532, 40.886605], [-73.89917, 40.886537], [-73.899228, 40.886602], [-73.899279, 40.88667]]], [[[-73.887173, 40.884443], [-73.887172, 40.884448], [-73.887172, 40.884453], [-73.88717, 40.884708], [-73.887173, 40.884711], [-73.887181, 40.884712], [-73.887276, 40.884601], [-73.887285, 40.884589], [-73.887359, 40.884496], [-73.887362, 40.884496], [-73.887435, 40.884403], [-73.887451, 40.884391], [-73.887451, 40.88438], [-73.887444, 40.884371], [-73.88743, 40.884369], [-73.887206, 40.884417], [-73.887184, 40.884426], [-73.887174, 40.884437], [-73.887175, 40.884439], [-73.887174, 40.884439], [-73.887173, 40.884443]]], [[[-73.886811, 40.884438], [-73.886803, 40.884448], [-73.886803, 40.884448], [-73.886804, 40.884454], [-73.886847, 40.884633], [-73.886854, 40.884661], [-73.886911, 40.884922], [-73.886918, 40.884921], [-73.88692, 40.884893], [-73.88692, 40.884886], [-73.886921, 40.884809], [-73.886922, 40.884805], [-73.886923, 40.884781], [-73.886927, 40.8847], [-73.886937, 40.884591], [-73.886949, 40.884498], [-73.886951, 40.884484], [-73.886954, 40.884466], [-73.886956, 40.884455], [-73.886954, 40.88445], [-73.88695, 40.884446], [-73.88695, 40.884446], [-73.886943, 40.884443], [-73.886922, 40.884442], [-73.88691, 40.884441], [-73.886881, 40.88444], [-73.886873, 40.884439], [-73.886852, 40.884437], [-73.886832, 40.884436], [-73.886825, 40.884435], [-73.886811, 40.884438]]]]}}]}